[{"province":"北京","city":"北京","zipCode":"100000","areaCode":"010"},{"province":"北京","city":"通县","zipCode":"101100","areaCode":"010"},{"province":"北京","city":"昌平","zipCode":"102200","areaCode":"010"},{"province":"北京","city":"大兴","zipCode":"102600","areaCode":"010"},{"province":"北京","city":"密云","zipCode":"101500","areaCode":"010"},{"province":"北京","city":"延庆","zipCode":"102100","areaCode":"010"},{"province":"北京","city":"顺义","zipCode":"101300","areaCode":"010"},{"province":"北京","city":"怀柔","zipCode":"101400","areaCode":"010"},{"province":"北京","city":"平台","zipCode":"101200","areaCode":"010"},{"province":"上海","city":"上海","zipCode":"200000","areaCode":"021"},{"province":"上海","city":"上海县","zipCode":"201100","areaCode":"021"},{"province":"上海","city":"嘉定","zipCode":"201800","areaCode":"021"},{"province":"上海","city":"松江","zipCode":"201600","areaCode":"021"},{"province":"上海","city":"南汇","zipCode":"201300","areaCode":"021"},{"province":"上海","city":"奉贤","zipCode":"201400","areaCode":"021"},{"province":"上海","city":"川沙","zipCode":"201200","areaCode":"021"},{"province":"上海","city":"青浦","zipCode":"201700","areaCode":"021"},{"province":"上海","city":"崇明","zipCode":"202100","areaCode":"021"},{"province":"上海","city":"金山","zipCode":"201500","areaCode":"021"},{"province":"天津","city":"天津","zipCode":"300000","areaCode":"022"},{"province":"天津","city":"蓟县","zipCode":"301900","areaCode":"022"},{"province":"天津","city":"宝坻","zipCode":"301800","areaCode":"022"},{"province":"天津","city":"武清","zipCode":"301700","areaCode":"022"},{"province":"天津","city":"静海","zipCode":"301600","areaCode":"022"},{"province":"天津","city":"宁河","zipCode":"301500","areaCode":"022"},{"province":"重庆","city":"万县","zipCode":"404000","areaCode":"023"},{"province":"重庆","city":"永川","zipCode":"402000","areaCode":"023"},{"province":"重庆","city":"北碚","zipCode":"400700","areaCode":"023"},{"province":"重庆","city":"巴县","zipCode":"401320","areaCode":"023"},{"province":"重庆","city":"江北","zipCode":"401120","areaCode":"023"},{"province":"重庆","city":"重庆","zipCode":"400000","areaCode":"023"},{"province":"重庆","city":"涪陵","zipCode":"408000","areaCode":"023"},{"province":"重庆","city":"石柱","zipCode":"409100","areaCode":"023"},{"province":"重庆","city":"丰都","zipCode":"408200","areaCode":"023"},{"province":"重庆","city":"南川","zipCode":"408400","areaCode":"023"},{"province":"重庆","city":"城口","zipCode":"405900","areaCode":"023"},{"province":"重庆","city":"巫溪","zipCode":"405800","areaCode":"023"},{"province":"重庆","city":"奉节","zipCode":"404600","areaCode":"023"},{"province":"重庆","city":"云阳","zipCode":"404500","areaCode":"023"},{"province":"重庆","city":"忠县","zipCode":"404300","areaCode":"023"},{"province":"重庆","city":"梁平","zipCode":"405200","areaCode":"023"},{"province":"重庆","city":"开县","zipCode":"405400","areaCode":"023"},{"province":"重庆","city":"大足","zipCode":"402360","areaCode":"023"},{"province":"重庆","city":"荣昌","zipCode":"402460","areaCode":"023"},{"province":"重庆","city":"壁山","zipCode":"402760","areaCode":"023"},{"province":"重庆","city":"铜梁","zipCode":"402560","areaCode":"023"},{"province":"重庆","city":"潼南","zipCode":"402660","areaCode":"023"},{"province":"重庆","city":"合川","zipCode":"401520","areaCode":"023"},{"province":"重庆","city":"江津","zipCode":"402260","areaCode":"023"},{"province":"重庆","city":"双桥","zipCode":"400900","areaCode":"023"},{"province":"重庆","city":"南桐","zipCode":"400800","areaCode":"023"},{"province":"重庆","city":"长寿","zipCode":"401220","areaCode":"023"},{"province":"重庆","city":"綦江","zipCode":"401420","areaCode":"023"},{"province":"重庆","city":"黔江","zipCode":"409700","areaCode":"023"},{"province":"重庆","city":"武隆","zipCode":"408500","areaCode":"023"},{"province":"重庆","city":"垫江","zipCode":"408300","areaCode":"023"},{"province":"重庆","city":"巫山","zipCode":"404700","areaCode":"023"},{"province":"河北","city":"石家庄","zipCode":"050000","areaCode":"0311"},{"province":"河北","city":"获鹿","zipCode":"050200","areaCode":"0311"},{"province":"河北","city":"正定","zipCode":"050800","areaCode":"0311"},{"province":"河北","city":"栾城","zipCode":"051400","areaCode":"0311"},{"province":"河北","city":"井陉","zipCode":"050300","areaCode":"0311"},{"province":"河北","city":"元氏","zipCode":"051100","areaCode":"0311"},{"province":"河北","city":"新乐","zipCode":"050700","areaCode":"0311"},{"province":"河北","city":"无极","zipCode":"052400","areaCode":"0311"},{"province":"河北","city":"深泽","zipCode":"052500","areaCode":"0311"},{"province":"河北","city":"辛集","zipCode":"052300","areaCode":"0311"},{"province":"河北","city":"晋州","zipCode":"052200","areaCode":"0311"},{"province":"河北","city":"赵县","zipCode":"051500","areaCode":"0311"},{"province":"河北","city":"赞皇","zipCode":"051200","areaCode":"0311"},{"province":"河北","city":"高邑","zipCode":"051300","areaCode":"0311"},{"province":"河北","city":"平山","zipCode":"050400","areaCode":"0311"},{"province":"河北","city":"灵寿","zipCode":"050500","areaCode":"0311"},{"province":"河北","city":"行唐","zipCode":"050600","areaCode":"0311"},{"province":"河北","city":"保定","zipCode":"071000","areaCode":"0312"},{"province":"河北","city":"潢城","zipCode":"072100","areaCode":"0312"},{"province":"河北","city":"清苑","zipCode":"071100","areaCode":"0312"},{"province":"河北","city":"涞水","zipCode":"074100","areaCode":"0312"},{"province":"河北","city":"易县","zipCode":"074200","areaCode":"0312"},{"province":"河北","city":"涞源","zipCode":"102900","areaCode":"0312"},{"province":"河北","city":"唐县","zipCode":"072300","areaCode":"0312"},{"province":"河北","city":"定兴","zipCode":"072600","areaCode":"0312"},{"province":"河北","city":"涿州","zipCode":"072700","areaCode":"0312"},{"province":"河北","city":"高碑店","zipCode":"074000","areaCode":"0312"},{"province":"河北","city":"博野","zipCode":"071300","areaCode":"0312"},{"province":"河北","city":"安国","zipCode":"071200","areaCode":"0312"},{"province":"河北","city":"定州","zipCode":"073000","areaCode":"0312"},{"province":"河北","city":"曲阳","zipCode":"073100","areaCode":"0312"},{"province":"河北","city":"阜平","zipCode":"073200","areaCode":"0312"},{"province":"河北","city":"高阳","zipCode":"071500","areaCode":"0312"},{"province":"河北","city":"徐水","zipCode":"072500","areaCode":"0312"},{"province":"河北","city":"容城","zipCode":"071700","areaCode":"0312"},{"province":"河北","city":"雄县","zipCode":"071800","areaCode":"0312"},{"province":"河北","city":"安新","zipCode":"071600","areaCode":"0312"},{"province":"河北","city":"望都","zipCode":"072400","areaCode":"0312"},{"province":"河北","city":"蠡县","zipCode":"071400","areaCode":"0312"},{"province":"河北","city":"顺平","zipCode":"072200","areaCode":"0312"},{"province":"河北","city":"张家口","zipCode":"075000","areaCode":"0313"},{"province":"河北","city":"宣化","zipCode":"075100","areaCode":"0313"},{"province":"河北","city":"怀安","zipCode":"076100","areaCode":"0313"},{"province":"河北","city":"万全","zipCode":"076200","areaCode":"0313"},{"province":"河北","city":"张北","zipCode":"076400","areaCode":"0313"},{"province":"河北","city":"崇礼","zipCode":"076300","areaCode":"0313"},{"province":"河北","city":"沽源","zipCode":"076500","areaCode":"0313"},{"province":"河北","city":"尚义","zipCode":"076700","areaCode":"0313"},{"province":"河北","city":"康保","zipCode":"076600","areaCode":"0313"},{"province":"河北","city":"赤城","zipCode":"075500","areaCode":"0313"},{"province":"河北","city":"怀来","zipCode":"075400","areaCode":"0313"},{"province":"河北","city":"涿鹿","zipCode":"075600","areaCode":"0313"},{"province":"河北","city":"蔚县","zipCode":"075700","areaCode":"0313"},{"province":"河北","city":"阳原","zipCode":"075800","areaCode":"0313"},{"province":"河北","city":"承德","zipCode":"067000","areaCode":"0314"},{"province":"河北","city":"承德县","zipCode":"067400","areaCode":"0314"},{"province":"河北","city":"兴隆","zipCode":"067300","areaCode":"0314"},{"province":"河北","city":"隆化","zipCode":"068100","areaCode":"0314"},{"province":"河北","city":"围场","zipCode":"068400","areaCode":"0314"},{"province":"河北","city":"平泉","zipCode":"067500","areaCode":"0314"},{"province":"河北","city":"宽城","zipCode":"067600","areaCode":"0314"},{"province":"河北","city":"丰宁","zipCode":"068300","areaCode":"0314"},{"province":"河北","city":"滦平","zipCode":"068200","areaCode":"0314"},{"province":"河北","city":"唐山","zipCode":"063000","areaCode":"0315"},{"province":"河北","city":"玉田","zipCode":"064100","areaCode":"0315"},{"province":"河北","city":"滦县","zipCode":"063700","areaCode":"0315"},{"province":"河北","city":"遵化","zipCode":"064200","areaCode":"0315"},{"province":"河北","city":"滦南","zipCode":"063500","areaCode":"0315"},{"province":"河北","city":"唐海","zipCode":"063200","areaCode":"0315"},{"province":"河北","city":"丰南","zipCode":"063300","areaCode":"0315"},{"province":"河北","city":"乐亭","zipCode":"063600","areaCode":"0315"},{"province":"河北","city":"丰润","zipCode":"064000","areaCode":"0315"},{"province":"河北","city":"迁安","zipCode":"064400","areaCode":"0315"},{"province":"河北","city":"迁西","zipCode":"064300","areaCode":"0315"},{"province":"河北","city":"廊坊","zipCode":"102800","areaCode":"0316"},{"province":"河北","city":"霸州","zipCode":"065700","areaCode":"0316"},{"province":"河北","city":"永清","zipCode":"302650","areaCode":"0316"},{"province":"河北","city":"大城","zipCode":"302950","areaCode":"0316"},{"province":"河北","city":"文安","zipCode":"302850","areaCode":"0316"},{"province":"河北","city":"固安","zipCode":"102700","areaCode":"0316"},{"province":"河北","city":"香河","zipCode":"302550","areaCode":"0316"},{"province":"河北","city":"大厂","zipCode":"101700","areaCode":"0316"},{"province":"河北","city":"三河","zipCode":"101600","areaCode":"0316"},{"province":"河北","city":"沧州","zipCode":"061000","areaCode":"0317"},{"province":"河北","city":"黄骅","zipCode":"061100","areaCode":"0317"},{"province":"河北","city":"海兴","zipCode":"061200","areaCode":"0317"},{"province":"河北","city":"盐山","zipCode":"061300","areaCode":"0317"},{"province":"河北","city":"孟村","zipCode":"061400","areaCode":"0317"},{"province":"河北","city":"青县","zipCode":"062600","areaCode":"0317"},{"province":"河北","city":"南皮","zipCode":"061500","areaCode":"0317"},{"province":"河北","city":"东光","zipCode":"061600","areaCode":"0317"},{"province":"河北","city":"吴桥","zipCode":"061800","areaCode":"0317"},{"province":"河北","city":"泊头","zipCode":"062100","areaCode":"0317"},{"province":"河北","city":"河间","zipCode":"062400","areaCode":"0317"},{"province":"河北","city":"肃宁","zipCode":"062300","areaCode":"0317"},{"province":"河北","city":"任丘","zipCode":"062500","areaCode":"0317"},{"province":"河北","city":"献县","zipCode":"062200","areaCode":"0317"},{"province":"河北","city":"衡水","zipCode":"053000","areaCode":"0318"},{"province":"河北","city":"铙阳","zipCode":"052700","areaCode":"0318"},{"province":"河北","city":"武强","zipCode":"053300","areaCode":"0318"},{"province":"河北","city":"武邑","zipCode":"053400","areaCode":"0318"},{"province":"河北","city":"阜城","zipCode":"061700","areaCode":"0318"},{"province":"河北","city":"景县","zipCode":"053500","areaCode":"0318"},{"province":"河北","city":"故城","zipCode":"253800","areaCode":"0318"},{"province":"河北","city":"枣强","zipCode":"053100","areaCode":"0318"},{"province":"河北","city":"冀县","zipCode":"053200","areaCode":"0318"},{"province":"河北","city":"深州","zipCode":"052800","areaCode":"0318"},{"province":"河北","city":"安平","zipCode":"052600","areaCode":"0318"},{"province":"河北","city":"邢台","zipCode":"054000","areaCode":"0319"},{"province":"河北","city":"临西","zipCode":"057800","areaCode":"0319"},{"province":"河北","city":"内丘","zipCode":"054200","areaCode":"0319"},{"province":"河北","city":"临城","zipCode":"054300","areaCode":"0319"},{"province":"河北","city":"柏乡","zipCode":"055400","areaCode":"0319"},{"province":"河北","city":"宁晋","zipCode":"051600","areaCode":"0319"},{"province":"河北","city":"隆尧","zipCode":"055300","areaCode":"0319"},{"province":"河北","city":"巨鹿","zipCode":"055200","areaCode":"0319"},{"province":"河北","city":"新河","zipCode":"051700","areaCode":"0319"},{"province":"河北","city":"南宫","zipCode":"051800","areaCode":"0319"},{"province":"河北","city":"清河","zipCode":"054800","areaCode":"0319"},{"province":"河北","city":"威县","zipCode":"054700","areaCode":"0319"},{"province":"河北","city":"广宗","zipCode":"054600","areaCode":"0319"},{"province":"河北","city":"平乡","zipCode":"054500","areaCode":"0319"},{"province":"河北","city":"南和","zipCode":"054400","areaCode":"0319"},{"province":"河北","city":"任县","zipCode":"055100","areaCode":"0319"},{"province":"河北","city":"沙河","zipCode":"054100","areaCode":"0319"},{"province":"河北","city":"邯郸","zipCode":"056000","areaCode":"0310"},{"province":"河北","city":"武安","zipCode":"056300","areaCode":"0310"},{"province":"河北","city":"临漳","zipCode":"056600","areaCode":"0310"},{"province":"河北","city":"磁县","zipCode":"056500","areaCode":"0310"},{"province":"河北","city":"涉县","zipCode":"056400","areaCode":"0310"},{"province":"河北","city":"成安","zipCode":"056700","areaCode":"0310"},{"province":"河北","city":"永年","zipCode":"057100","areaCode":"0310"},{"province":"河北","city":"鸡泽","zipCode":"057300","areaCode":"0310"},{"province":"河北","city":"曲周","zipCode":"057200","areaCode":"0310"},{"province":"河北","city":"丘县","zipCode":"057400","areaCode":"0310"},{"province":"河北","city":"馆陶","zipCode":"057700","areaCode":"0310"},{"province":"河北","city":"大名","zipCode":"056900","areaCode":"0310"},{"province":"河北","city":"魏县","zipCode":"056800","areaCode":"0310"},{"province":"河北","city":"广平","zipCode":"057600","areaCode":"0310"},{"province":"河北","city":"肥乡","zipCode":"057500","areaCode":"0310"},{"province":"河北","city":"秦皇岛","zipCode":"066000","areaCode":"0335"},{"province":"河北","city":"昌黎","zipCode":"066600","areaCode":"0335"},{"province":"河北","city":"卢龙","zipCode":"066400","areaCode":"0335"},{"province":"河北","city":"抚宁","zipCode":"066300","areaCode":"0335"},{"province":"河北","city":"青龙","zipCode":"066500","areaCode":"0335"},{"province":"山西","city":"朔州","zipCode":"038500","areaCode":"0349"},{"province":"山西","city":"怀仁","zipCode":"038300","areaCode":"0349"},{"province":"山西","city":"应县","zipCode":"037600","areaCode":"0349"},{"province":"山西","city":"右玉","zipCode":"037200","areaCode":"0349"},{"province":"山西","city":"山阴","zipCode":"038400","areaCode":"0349"},{"province":"山西","city":"忻州","zipCode":"034000","areaCode":"0350"},{"province":"山西","city":"原平","zipCode":"034100","areaCode":"0350"},{"province":"山西","city":"定襄","zipCode":"035400","areaCode":"0350"},{"province":"山西","city":"五台","zipCode":"035500","areaCode":"0350"},{"province":"山西","city":"代县","zipCode":"034200","areaCode":"0350"},{"province":"山西","city":"繁峙","zipCode":"034300","areaCode":"0350"},{"province":"山西","city":"宁武","zipCode":"036000","areaCode":"0350"},{"province":"山西","city":"神池","zipCode":"036100","areaCode":"0350"},{"province":"山西","city":"五寨","zipCode":"036200","areaCode":"0350"},{"province":"山西","city":"岢岚","zipCode":"036300","areaCode":"0350"},{"province":"山西","city":"河曲","zipCode":"036500","areaCode":"0350"},{"province":"山西","city":"保德","zipCode":"036600","areaCode":"0350"},{"province":"山西","city":"偏关","zipCode":"036400","areaCode":"0350"},{"province":"山西","city":"静乐","zipCode":"035100","areaCode":"0350"},{"province":"山西","city":"太原","zipCode":"030000","areaCode":"0351"},{"province":"山西","city":"阳曲","zipCode":"030100","areaCode":"0351"},{"province":"山西","city":"娄烦","zipCode":"030300","areaCode":"0351"},{"province":"山西","city":"清徐","zipCode":"030400","areaCode":"0351"},{"province":"山西","city":"古交","zipCode":"030200","areaCode":"0351"},{"province":"山西","city":"大同","zipCode":"037000","areaCode":"0352"},{"province":"山西","city":"大同县","zipCode":"037300","areaCode":"0352"},{"province":"山西","city":"天镇","zipCode":"038200","areaCode":"0352"},{"province":"山西","city":"阳高","zipCode":"038100","areaCode":"0352"},{"province":"山西","city":"浑源","zipCode":"037400","areaCode":"0352"},{"province":"山西","city":"广灵","zipCode":"037500","areaCode":"0352"},{"province":"山西","city":"灵丘","zipCode":"034400","areaCode":"0352"},{"province":"山西","city":"左云","zipCode":"037100","areaCode":"0352"},{"province":"山西","city":"阳泉","zipCode":"075800","areaCode":"0353"},{"province":"山西","city":"孟县","zipCode":"045100","areaCode":"0353"},{"province":"山西","city":"平定","zipCode":"045200","areaCode":"0353"},{"province":"山西","city":"榆次","zipCode":"030600","areaCode":"0354"},{"province":"山西","city":"灵石","zipCode":"031300","areaCode":"0354"},{"province":"山西","city":"昔阳","zipCode":"045300","areaCode":"0354"},{"province":"山西","city":"和顺","zipCode":"032700","areaCode":"0354"},{"province":"山西","city":"左权","zipCode":"032600","areaCode":"0354"},{"province":"山西","city":"榆社","zipCode":"031800","areaCode":"0354"},{"province":"山西","city":"寿阳","zipCode":"031700","areaCode":"0354"},{"province":"山西","city":"太谷","zipCode":"030800","areaCode":"0354"},{"province":"山西","city":"祁县","zipCode":"030900","areaCode":"0354"},{"province":"山西","city":"平遥","zipCode":"031100","areaCode":"0354"},{"province":"山西","city":"介休","zipCode":"031200","areaCode":"0354"},{"province":"山西","city":"长治","zipCode":"046000","areaCode":"0355"},{"province":"山西","city":"长治县","zipCode":"047100","areaCode":"0355"},{"province":"山西","city":"壶关","zipCode":"047300","areaCode":"0355"},{"province":"山西","city":"平顺","zipCode":"047400","areaCode":"0355"},{"province":"山西","city":"黎城","zipCode":"047600","areaCode":"0355"},{"province":"山西","city":"襄坦","zipCode":"046200","areaCode":"0355"},{"province":"山西","city":"武乡","zipCode":"046300","areaCode":"0355"},{"province":"山西","city":"沁县","zipCode":"046400","areaCode":"0355"},{"province":"山西","city":"沁源","zipCode":"046500","areaCode":"0355"},{"province":"山西","city":"屯留","zipCode":"046100","areaCode":"0355"},{"province":"山西","city":"长子","zipCode":"046600","areaCode":"0355"},{"province":"山西","city":"潞城","zipCode":"047500","areaCode":"0355"},{"province":"山西","city":"晋城","zipCode":"048000","areaCode":"0356"},{"province":"山西","city":"高平","zipCode":"046700","areaCode":"0356"},{"province":"山西","city":"阳城","zipCode":"048100","areaCode":"0356"},{"province":"山西","city":"沁水","zipCode":"048200","areaCode":"0356"},{"province":"山西","city":"陵川","zipCode":"048300","areaCode":"0356"},{"province":"山西","city":"临汾","zipCode":"041000","areaCode":"0357"},{"province":"山西","city":"候马","zipCode":"043000","areaCode":"0357"},{"province":"山西","city":"大宁","zipCode":"042300","areaCode":"0357"},{"province":"山西","city":"曲沃","zipCode":"043400","areaCode":"0357"},{"province":"山西","city":"翼城","zipCode":"043500","areaCode":"0357"},{"province":"山西","city":"襄汾","zipCode":"041500","areaCode":"0357"},{"province":"山西","city":"洪洞","zipCode":"031600","areaCode":"0357"},{"province":"山西","city":"霍州","zipCode":"031400","areaCode":"0357"},{"province":"山西","city":"汾西","zipCode":"031500","areaCode":"0357"},{"province":"山西","city":"蒲县","zipCode":"041200","areaCode":"0357"},{"province":"山西","city":"隰县","zipCode":"041300","areaCode":"0357"},{"province":"山西","city":"永和","zipCode":"041400","areaCode":"0357"},{"province":"山西","city":"乡宁","zipCode":"042100","areaCode":"0357"},{"province":"山西","city":"吉县","zipCode":"042200","areaCode":"0357"},{"province":"山西","city":"安泽","zipCode":"042500","areaCode":"0357"},{"province":"山西","city":"浮山","zipCode":"042600","areaCode":"0357"},{"province":"山西","city":"古县","zipCode":"042400","areaCode":"0357"},{"province":"山西","city":"离石","zipCode":"033000","areaCode":"0358"},{"province":"山西","city":"石楼","zipCode":"032500","areaCode":"0358"},{"province":"山西","city":"方山","zipCode":"033100","areaCode":"0358"},{"province":"山西","city":"临县","zipCode":"033200","areaCode":"0358"},{"province":"山西","city":"汾阳","zipCode":"033200","areaCode":"0358"},{"province":"山西","city":"文水","zipCode":"032100","areaCode":"0358"},{"province":"山西","city":"交城","zipCode":"030500","areaCode":"0358"},{"province":"山西","city":"孝义","zipCode":"032300","areaCode":"0358"},{"province":"山西","city":"交口","zipCode":"032400","areaCode":"0358"},{"province":"山西","city":"中阳","zipCode":"033400","areaCode":"0358"},{"province":"山西","city":"柳林","zipCode":"033300","areaCode":"0358"},{"province":"山西","city":"兴县","zipCode":"035300","areaCode":"0358"},{"province":"山西","city":"岚县","zipCode":"035200","areaCode":"0358"},{"province":"山西","city":"运城","zipCode":"044000","areaCode":"0359"},{"province":"山西","city":"芮城","zipCode":"044600","areaCode":"0359"},{"province":"山西","city":"平陆","zipCode":"044300","areaCode":"0359"},{"province":"山西","city":"临猗","zipCode":"044100","areaCode":"0359"},{"province":"山西","city":"万荣","zipCode":"044200","areaCode":"0359"},{"province":"山西","city":"稷山","zipCode":"043200","areaCode":"0359"},{"province":"山西","city":"河津","zipCode":"043300","areaCode":"0359"},{"province":"山西","city":"新绛","zipCode":"043100","areaCode":"0359"},{"province":"山西","city":"闻喜","zipCode":"043800","areaCode":"0359"},{"province":"山西","city":"夏县","zipCode":"044400","areaCode":"0359"},{"province":"山西","city":"永剂","zipCode":"044500","areaCode":"0359"},{"province":"山西","city":"绛县","zipCode":"043600","areaCode":"0359"},{"province":"山西","city":"垣曲","zipCode":"043700","areaCode":"0359"},{"province":"河南","city":"商丘","zipCode":"476000","areaCode":"0370"},{"province":"河南","city":"商丘县","zipCode":"476100","areaCode":"0370"},{"province":"河南","city":"虞城","zipCode":"476300","areaCode":"0370"},{"province":"河南","city":"夏邑","zipCode":"476400","areaCode":"0370"},{"province":"河南","city":"永城","zipCode":"476600","areaCode":"0370"},{"province":"河南","city":"柘城","zipCode":"476200","areaCode":"0370"},{"province":"河南","city":"宁陵","zipCode":"476700","areaCode":"0370"},{"province":"河南","city":"睢县","zipCode":"476900","areaCode":"0370"},{"province":"河南","city":"民权","zipCode":"476800","areaCode":"0370"},{"province":"河南","city":"郑州","zipCode":"450000","areaCode":"0371"},{"province":"河南","city":"上街","zipCode":"451000","areaCode":"0371"},{"province":"河南","city":"荥阳","zipCode":"450100","areaCode":"0371"},{"province":"河南","city":"新郑","zipCode":"451100","areaCode":"0371"},{"province":"河南","city":"中牟","zipCode":"451400","areaCode":"0371"},{"province":"河南","city":"新密","zipCode":"452300","areaCode":"0371"},{"province":"河南","city":"登封","zipCode":"452400","areaCode":"0371"},{"province":"河南","city":"巩县","zipCode":"451200","areaCode":"0371"},{"province":"河南","city":"安阳","zipCode":"455000","areaCode":"0372"},{"province":"河南","city":"安阳县","zipCode":"455100","areaCode":"0372"},{"province":"河南","city":"汤阴","zipCode":"456100","areaCode":"0372"},{"province":"河南","city":"林县","zipCode":"456500","areaCode":"0372"},{"province":"河南","city":"内黄","zipCode":"456300","areaCode":"0372"},{"province":"河南","city":"滑县","zipCode":"456400","areaCode":"0372"},{"province":"河南","city":"新乡","zipCode":"453700","areaCode":"0373"},{"province":"河南","city":"卫辉","zipCode":"453100","areaCode":"0373"},{"province":"河南","city":"延津","zipCode":"453200","areaCode":"0373"},{"province":"河南","city":"原阳","zipCode":"453500","areaCode":"0373"},{"province":"河南","city":"获嘉","zipCode":"453800","areaCode":"0373"},{"province":"河南","city":"长垣","zipCode":"453400","areaCode":"0373"},{"province":"河南","city":"封丘","zipCode":"453300","areaCode":"0373"},{"province":"河南","city":"辉县","zipCode":"453600","areaCode":"0373"},{"province":"河南","city":"许昌","zipCode":"461000","areaCode":"0374"},{"province":"河南","city":"长葛","zipCode":"461500","areaCode":"0374"},{"province":"河南","city":"鄢陵","zipCode":"461200","areaCode":"0374"},{"province":"河南","city":"禹州","zipCode":"452500","areaCode":"0374"},{"province":"河南","city":"平顶山","zipCode":"467000","areaCode":"0375"},{"province":"河南","city":"舞钢","zipCode":"462500","areaCode":"0375"},{"province":"河南","city":"郏县","zipCode":"467100","areaCode":"0375"},{"province":"河南","city":"襄城","zipCode":"452600","areaCode":"0375"},{"province":"河南","city":"叶县","zipCode":"467200","areaCode":"0375"},{"province":"河南","city":"鲁山","zipCode":"467300","areaCode":"0375"},{"province":"河南","city":"宝丰","zipCode":"467400","areaCode":"0375"},{"province":"河南","city":"汝州","zipCode":"467500","areaCode":"0375"},{"province":"河南","city":"信阳","zipCode":"464000","areaCode":"0376"},{"province":"河南","city":"信阳县","zipCode":"464100","areaCode":"0376"},{"province":"河南","city":"罗山","zipCode":"464200","areaCode":"0376"},{"province":"河南","city":"卧龙","zipCode":"473000","areaCode":"0377"},{"province":"河南","city":"宛城","zipCode":"473100","areaCode":"0377"},{"province":"河南","city":"邓州","zipCode":"474100","areaCode":"0377"},{"province":"河南","city":"西峡","zipCode":"474500","areaCode":"0377"},{"province":"河南","city":"浙川","zipCode":"474400","areaCode":"0377"},{"province":"河南","city":"方城","zipCode":"473200","areaCode":"0377"},{"province":"河南","city":"社旗","zipCode":"473300","areaCode":"0377"},{"province":"河南","city":"唐河","zipCode":"473400","areaCode":"0377"},{"province":"河南","city":"新野","zipCode":"473500","areaCode":"0377"},{"province":"河南","city":"镇平","zipCode":"474200","areaCode":"0377"},{"province":"河南","city":"南召","zipCode":"474600","areaCode":"0377"},{"province":"河南","city":"桐柏","zipCode":"474700","areaCode":"0377"},{"province":"河南","city":"内乡","zipCode":"474300","areaCode":"0377"},{"province":"河南","city":"开封","zipCode":"475000","areaCode":"0378"},{"province":"河南","city":"开封县","zipCode":"475100","areaCode":"0378"},{"province":"河南","city":"兰考","zipCode":"475300","areaCode":"0378"},{"province":"河南","city":"杞县","zipCode":"475200","areaCode":"0378"},{"province":"河南","city":"通许","zipCode":"452200","areaCode":"0378"},{"province":"河南","city":"尉氏","zipCode":"452100","areaCode":"0378"},{"province":"河南","city":"洛阳","zipCode":"471000","areaCode":"0379"},{"province":"河南","city":"洛宁","zipCode":"471700","areaCode":"0379"},{"province":"河南","city":"孟津","zipCode":"471100","areaCode":"0379"},{"province":"河南","city":"偃师","zipCode":"471900","areaCode":"0379"},{"province":"河南","city":"伊川","zipCode":"471300","areaCode":"0379"},{"province":"河南","city":"宜阳","zipCode":"471600","areaCode":"0379"},{"province":"河南","city":"新安","zipCode":"471800","areaCode":"0379"},{"province":"河南","city":"汝阳","zipCode":"471200","areaCode":"0379"},{"province":"河南","city":"嵩县","zipCode":"471400","areaCode":"0379"},{"province":"河南","city":"栾川","zipCode":"471500","areaCode":"0379"},{"province":"河南","city":"焦作","zipCode":"454100","areaCode":"0391"},{"province":"河南","city":"修武","zipCode":"454300","areaCode":"0391"},{"province":"河南","city":"武陟","zipCode":"454900","areaCode":"0391"},{"province":"河南","city":"温县","zipCode":"454800","areaCode":"0391"},{"province":"河南","city":"孟县","zipCode":"454700","areaCode":"0391"},{"province":"河南","city":"博爱","zipCode":"454400","areaCode":"0391"},{"province":"河南","city":"沁阳","zipCode":"454500","areaCode":"0391"},{"province":"河南","city":"济源","zipCode":"454600","areaCode":"0391"},{"province":"河南","city":"鹤壁","zipCode":"456600","areaCode":"0392"},{"province":"河南","city":"浚县","zipCode":"456200","areaCode":"0392"},{"province":"河南","city":"淇县","zipCode":"456700","areaCode":"0392"},{"province":"河南","city":"濮阳","zipCode":"457000","areaCode":"0393"},{"province":"河南","city":"濮阳县","zipCode":"457002","areaCode":"0393"},{"province":"河南","city":"台前","zipCode":"457600","areaCode":"0393"},{"province":"河南","city":"范县","zipCode":"457500","areaCode":"0393"},{"province":"河南","city":"南乐","zipCode":"457400","areaCode":"0393"},{"province":"河南","city":"清丰","zipCode":"457300","areaCode":"0393"},{"province":"河南","city":"周口","zipCode":"466000","areaCode":"0394"},{"province":"河南","city":"西华","zipCode":"466600","areaCode":"0394"},{"province":"河南","city":"淮阳","zipCode":"466700","areaCode":"0394"},{"province":"河南","city":"郸城","zipCode":"477100","areaCode":"0394"},{"province":"河南","city":"鹿邑","zipCode":"477200","areaCode":"0394"},{"province":"河南","city":"沈丘","zipCode":"466300","areaCode":"0394"},{"province":"河南","city":"项城","zipCode":"466200","areaCode":"0394"},{"province":"河南","city":"扶沟","zipCode":"461300","areaCode":"0394"},{"province":"河南","city":"太康","zipCode":"475400","areaCode":"0394"},{"province":"河南","city":"商水","zipCode":"466100","areaCode":"0394"},{"province":"河南","city":"漯河","zipCode":"462000","areaCode":"0395"},{"province":"河南","city":"临颖","zipCode":"462600","areaCode":"0395"},{"province":"河南","city":"舞阳","zipCode":"462400","areaCode":"0395"},{"province":"河南","city":"郾城","zipCode":"462300","areaCode":"0395"},{"province":"河南","city":"驻马店","zipCode":"463000","areaCode":"0396"},{"province":"河南","city":"泌阳","zipCode":"463700","areaCode":"0396"},{"province":"河南","city":"遂平","zipCode":"463100","areaCode":"0396"},{"province":"河南","city":"汝南","zipCode":"463300","areaCode":"0396"},{"province":"河南","city":"确山","zipCode":"463200","areaCode":"0396"},{"province":"河南","city":"西平","zipCode":"462100","areaCode":"0396"},{"province":"河南","city":"上蔡","zipCode":"463800","areaCode":"0396"},{"province":"河南","city":"平舆","zipCode":"463400","areaCode":"0396"},{"province":"河南","city":"新蔡","zipCode":"463500","areaCode":"0396"},{"province":"河南","city":"正阳","zipCode":"463600","areaCode":"0396"},{"province":"河南","city":"潢川","zipCode":"465100","areaCode":"0397"},{"province":"河南","city":"光山","zipCode":"465400","areaCode":"0397"},{"province":"河南","city":"新县","zipCode":"465500","areaCode":"0397"},{"province":"河南","city":"淮滨","zipCode":"464400","areaCode":"0397"},{"province":"河南","city":"固始","zipCode":"465200","areaCode":"0397"},{"province":"河南","city":"商城","zipCode":"465300","areaCode":"0397"},{"province":"河南","city":"息县","zipCode":"464300","areaCode":"0397"},{"province":"河南","city":"三门峡","zipCode":"472000","areaCode":"0398"},{"province":"河南","city":"卢氏","zipCode":"472200","areaCode":"0398"},{"province":"河南","city":"渑池","zipCode":"472400","areaCode":"0398"},{"province":"河南","city":"义马","zipCode":"472300","areaCode":"0398"},{"province":"河南","city":"灵宝","zipCode":"472500","areaCode":"0398"},{"province":"河南","city":"陕县","zipCode":"472100","areaCode":"0398"},{"province":"辽宁","city":"沈阳","zipCode":"110000","areaCode":"024"},{"province":"辽宁","city":"新民","zipCode":"110300","areaCode":"024"},{"province":"辽宁","city":"辽中","zipCode":"110200","areaCode":"024"},{"province":"辽宁","city":"康平","zipCode":"112200","areaCode":"024"},{"province":"辽宁","city":"法库","zipCode":"112100","areaCode":"024"},{"province":"辽宁","city":"铁岭","zipCode":"112000","areaCode":"0410"},{"province":"辽宁","city":"铁岭县","zipCode":"112600","areaCode":"0410"},{"province":"辽宁","city":"昌图","zipCode":"112500","areaCode":"0410"},{"province":"辽宁","city":"开原","zipCode":"112300","areaCode":"0410"},{"province":"辽宁","city":"西丰","zipCode":"112400","areaCode":"0410"},{"province":"辽宁","city":"铁法","zipCode":"112700","areaCode":"0410"},{"province":"辽宁","city":"大连","zipCode":"116000","areaCode":"0411"},{"province":"辽宁","city":"庄河","zipCode":"116400","areaCode":"0411"},{"province":"辽宁","city":"长海","zipCode":"116500","areaCode":"0411"},{"province":"辽宁","city":"瓦房店","zipCode":"116300","areaCode":"0411"},{"province":"辽宁","city":"普兰店","zipCode":"116600","areaCode":"0411"},{"province":"辽宁","city":"金县","zipCode":"116100","areaCode":"0411"},{"province":"辽宁","city":"新金","zipCode":"116200","areaCode":"0411"},{"province":"辽宁","city":"鞍山","zipCode":"114000","areaCode":"0412"},{"province":"辽宁","city":"海城","zipCode":"114200","areaCode":"0412"},{"province":"辽宁","city":"台安","zipCode":"114100","areaCode":"0412"},{"province":"辽宁","city":"岫岩","zipCode":"114300","areaCode":"0412"},{"province":"辽宁","city":"抚顺","zipCode":"113000","areaCode":"0413"},{"province":"辽宁","city":"抚顺县","zipCode":"113100","areaCode":"0413"},{"province":"辽宁","city":"清原","zipCode":"113300","areaCode":"0413"},{"province":"辽宁","city":"新宾","zipCode":"113200","areaCode":"0413"},{"province":"辽宁","city":"本溪","zipCode":"117000","areaCode":"0414"},{"province":"辽宁","city":"本溪县","zipCode":"117100","areaCode":"0414"},{"province":"辽宁","city":"桓仁","zipCode":"117200","areaCode":"0414"},{"province":"辽宁","city":"丹东","zipCode":"118000","areaCode":"0415"},{"province":"辽宁","city":"东港","zipCode":"118300","areaCode":"0415"},{"province":"辽宁","city":"凤城","zipCode":"118100","areaCode":"0415"},{"province":"辽宁","city":"宽甸","zipCode":"118200","areaCode":"0415"},{"province":"辽宁","city":"锦州","zipCode":"121000","areaCode":"0416"},{"province":"辽宁","city":"凌海","zipCode":"121200","areaCode":"0416"},{"province":"辽宁","city":"黑山","zipCode":"121400","areaCode":"0416"},{"province":"辽宁","city":"义县","zipCode":"121100","areaCode":"0416"},{"province":"辽宁","city":"北宁","zipCode":"121300","areaCode":"0416"},{"province":"辽宁","city":"营口","zipCode":"115000","areaCode":"0417"},{"province":"辽宁","city":"盖州","zipCode":"115200","areaCode":"0417"},{"province":"辽宁","city":"大石桥","zipCode":"115100","areaCode":"0417"},{"province":"辽宁","city":"阜新","zipCode":"123000","areaCode":"0418"},{"province":"辽宁","city":"阜新县","zipCode":"123100","areaCode":"0418"},{"province":"辽宁","city":"彰武","zipCode":"123200","areaCode":"0418"},{"province":"辽宁","city":"辽阳","zipCode":"111000","areaCode":"0419"},{"province":"辽宁","city":"辽阳县","zipCode":"111200","areaCode":"0419"},{"province":"辽宁","city":"灯塔","zipCode":"111300","areaCode":"0419"},{"province":"辽宁","city":"朝阳","zipCode":"122000","areaCode":"0421"},{"province":"辽宁","city":"朝阳县","zipCode":"122600","areaCode":"0421"},{"province":"辽宁","city":"建平","zipCode":"122400","areaCode":"0421"},{"province":"辽宁","city":"北票","zipCode":"122100","areaCode":"0421"},{"province":"辽宁","city":"凌源","zipCode":"122500","areaCode":"0421"},{"province":"辽宁","city":"喀喇沁左翼","zipCode":"122300","areaCode":"0421"},{"province":"辽宁","city":"盘锦","zipCode":"124000","areaCode":"0427"},{"province":"辽宁","city":"盘山","zipCode":"124100","areaCode":"0427"},{"province":"辽宁","city":"大洼","zipCode":"124200","areaCode":"0427"},{"province":"辽宁","city":"葫芦岛","zipCode":"121500","areaCode":"0429"},{"province":"辽宁","city":"绥中","zipCode":"121700","areaCode":"0429"},{"province":"辽宁","city":"建昌","zipCode":"122200","areaCode":"0429"},{"province":"辽宁","city":"兴城","zipCode":"121600","areaCode":"0429"},{"province":"吉林","city":"长春","zipCode":"130000","areaCode":"0431"},{"province":"吉林","city":"双阳","zipCode":"130600","areaCode":"0431"},{"province":"吉林","city":"农安","zipCode":"130200","areaCode":"0431"},{"province":"吉林","city":"九台","zipCode":"130500","areaCode":"0431"},{"province":"吉林","city":"德惠","zipCode":"130300","areaCode":"0431"},{"province":"吉林","city":"榆树","zipCode":"130400","areaCode":"0431"},{"province":"吉林","city":"吉林","zipCode":"132000","areaCode":"0432"},{"province":"吉林","city":"永吉","zipCode":"132200","areaCode":"0432"},{"province":"吉林","city":"磬石","zipCode":"132300","areaCode":"0432"},{"province":"吉林","city":"桦甸","zipCode":"132400","areaCode":"0432"},{"province":"吉林","city":"蛟河","zipCode":"132500","areaCode":"0432"},{"province":"吉林","city":"舒兰","zipCode":"132600","areaCode":"0432"},{"province":"吉林","city":"延吉","zipCode":"133000","areaCode":"0433"},{"province":"吉林","city":"汪清","zipCode":"133200","areaCode":"0433"},{"province":"吉林","city":"和龙","zipCode":"133500","areaCode":"0433"},{"province":"吉林","city":"安图","zipCode":"133600","areaCode":"0433"},{"province":"吉林","city":"敦化","zipCode":"133700","areaCode":"0433"},{"province":"吉林","city":"图们","zipCode":"133100","areaCode":"0433"},{"province":"吉林","city":"龙井","zipCode":"133400","areaCode":"0433"},{"province":"吉林","city":"四平","zipCode":"136000","areaCode":"0434"},{"province":"吉林","city":"双辽","zipCode":"136400","areaCode":"0434"},{"province":"吉林","city":"犁树","zipCode":"136500","areaCode":"0434"},{"province":"吉林","city":"公主岭","zipCode":"136100","areaCode":"0434"},{"province":"吉林","city":"通化","zipCode":"134000","areaCode":"0435"},{"province":"吉林","city":"通化县","zipCode":"134100","areaCode":"0435"},{"province":"吉林","city":"集安","zipCode":"134200","areaCode":"0435"},{"province":"吉林","city":"白城","zipCode":"137000","areaCode":"0436"},{"province":"吉林","city":"通榆","zipCode":"137200","areaCode":"0436"},{"province":"吉林","city":"大安","zipCode":"131300","areaCode":"0436"},{"province":"吉林","city":"洮南","zipCode":"137100","areaCode":"0436"},{"province":"吉林","city":"镇赉","zipCode":"137300","areaCode":"0436"},{"province":"吉林","city":"辽源","zipCode":"136200","areaCode":"0437"},{"province":"吉林","city":"东辽","zipCode":"136600","areaCode":"0437"},{"province":"吉林","city":"东丰","zipCode":"136300","areaCode":"0437"},{"province":"吉林","city":"松原","zipCode":"131000","areaCode":"0438"},{"province":"吉林","city":"扶余","zipCode":"131200","areaCode":"0438"},{"province":"吉林","city":"前郭","zipCode":"131100","areaCode":"0438"},{"province":"吉林","city":"长岭","zipCode":"131500","areaCode":"0438"},{"province":"吉林","city":"乾安","zipCode":"131400","areaCode":"0438"},{"province":"吉林","city":"临江","zipCode":"134100","areaCode":"0439"},{"province":"吉林","city":"靖宇","zipCode":"135200","areaCode":"0439"},{"province":"吉林","city":"长白","zipCode":"134400","areaCode":"0439"},{"province":"吉林","city":"抚松","zipCode":"134500","areaCode":"0439"},{"province":"吉林","city":"江源","zipCode":"134300","areaCode":"0439"},{"province":"吉林","city":"珲春","zipCode":"133300","areaCode":"0440"},{"province":"吉林","city":"梅河口","zipCode":"135000","areaCode":"0448"},{"province":"吉林","city":"柳河","zipCode":"135300","areaCode":"0448"},{"province":"吉林","city":"辉南","zipCode":"135100","areaCode":"0448"},{"province":"黑龙江","city":"哈尔滨","zipCode":"150000","areaCode":"0451"},{"province":"黑龙江","city":"阿城","zipCode":"150300","areaCode":"0451"},{"province":"黑龙江","city":"通河","zipCode":"150900","areaCode":"0451"},{"province":"黑龙江","city":"方正","zipCode":"150800","areaCode":"0451"},{"province":"黑龙江","city":"尚志","zipCode":"150600","areaCode":"0451"},{"province":"黑龙江","city":"延寿","zipCode":"150700","areaCode":"0451"},{"province":"黑龙江","city":"双成","zipCode":"150100","areaCode":"0451"},{"province":"黑龙江","city":"肇东","zipCode":"151100","areaCode":"0451"},{"province":"黑龙江","city":"宾县","zipCode":"150400","areaCode":"0451"},{"province":"黑龙江","city":"木兰","zipCode":"151900","areaCode":"0451"},{"province":"黑龙江","city":"五常","zipCode":"150200","areaCode":"0451"},{"province":"黑龙江","city":"巴彦","zipCode":"151800","areaCode":"0451"},{"province":"黑龙江","city":"呼兰","zipCode":"150500","areaCode":"0451"},{"province":"黑龙江","city":"齐齐哈尔","zipCode":"161000","areaCode":"0452"},{"province":"黑龙江","city":"克山","zipCode":"161600","areaCode":"0452"},{"province":"黑龙江","city":"拜泉","zipCode":"161700","areaCode":"0452"},{"province":"黑龙江","city":"依安","zipCode":"161500","areaCode":"0452"},{"province":"黑龙江","city":"龙江","zipCode":"161100","areaCode":"0452"},{"province":"黑龙江","city":"讷河","zipCode":"161300","areaCode":"0452"},{"province":"黑龙江","city":"甘南","zipCode":"162100","areaCode":"0452"},{"province":"黑龙江","city":"富裕","zipCode":"161200","areaCode":"0452"},{"province":"黑龙江","city":"克东","zipCode":"161800","areaCode":"0452"},{"province":"黑龙江","city":"泰来","zipCode":"162400","areaCode":"0452"},{"province":"黑龙江","city":"牡丹江","zipCode":"157000","areaCode":"0453"},{"province":"黑龙江","city":"林口","zipCode":"157600","areaCode":"0453"},{"province":"黑龙江","city":"穆棱","zipCode":"157500","areaCode":"0453"},{"province":"黑龙江","city":"东宁","zipCode":"157200","areaCode":"0453"},{"province":"黑龙江","city":"海林","zipCode":"157100","areaCode":"0453"},{"province":"黑龙江","city":"宁安","zipCode":"157400","areaCode":"0453"},{"province":"黑龙江","city":"绥芬河","zipCode":"157300","areaCode":"0453"},{"province":"黑龙江","city":"虎林","zipCode":"158400","areaCode":"0453"},{"province":"黑龙江","city":"鸡西","zipCode":"158100","areaCode":"0453"},{"province":"黑龙江","city":"鸡东","zipCode":"158200","areaCode":"0453"},{"province":"黑龙江","city":"密山","zipCode":"158300","areaCode":"0453"},{"province":"黑龙江","city":"七台河","zipCode":"154600","areaCode":"0453"},{"province":"黑龙江","city":"勃利","zipCode":"154500","areaCode":"0453"},{"province":"黑龙江","city":"佳木斯","zipCode":"154000","areaCode":"0454"},{"province":"黑龙江","city":"依兰","zipCode":"154800","areaCode":"0454"},{"province":"黑龙江","city":"汤原","zipCode":"154700","areaCode":"0454"},{"province":"黑龙江","city":"桦南","zipCode":"154400","areaCode":"0454"},{"province":"黑龙江","city":"富锦","zipCode":"156100","areaCode":"0454"},{"province":"黑龙江","city":"抚远","zipCode":"156500","areaCode":"0454"},{"province":"黑龙江","city":"同江","zipCode":"156400","areaCode":"0454"},{"province":"黑龙江","city":"桦川","zipCode":"154300","areaCode":"0454"},{"province":"黑龙江","city":"饶河","zipCode":"156700","areaCode":"0454"},{"province":"黑龙江","city":"萝北","zipCode":"154200","areaCode":"0454"},{"province":"黑龙江","city":"鹤岗","zipCode":"154100","areaCode":"0454"},{"province":"黑龙江","city":"绥滨","zipCode":"156200","areaCode":"0454"},{"province":"黑龙江","city":"双鸭山","zipCode":"155100","areaCode":"0454"},{"province":"黑龙江","city":"友谊","zipCode":"156900","areaCode":"0454"},{"province":"黑龙江","city":"宝清","zipCode":"156600","areaCode":"0454"},{"province":"黑龙江","city":"集贤","zipCode":"154900","areaCode":"0454"},{"province":"黑龙江","city":"绥化","zipCode":"152000","areaCode":"0458"},{"province":"黑龙江","city":"明水","zipCode":"151700","areaCode":"0458"},{"province":"黑龙江","city":"庆安","zipCode":"152400","areaCode":"0458"},{"province":"黑龙江","city":"海伦","zipCode":"152300","areaCode":"0458"},{"province":"黑龙江","city":"绥棱","zipCode":"152200","areaCode":"0458"},{"province":"黑龙江","city":"望奎","zipCode":"152100","areaCode":"0458"},{"province":"黑龙江","city":"兰西","zipCode":"151500","areaCode":"0458"},{"province":"黑龙江","city":"青冈","zipCode":"151600","areaCode":"0458"},{"province":"黑龙江","city":"黑河","zipCode":"164300","areaCode":"0456"},{"province":"黑龙江","city":"北安","zipCode":"164000","areaCode":"0456"},{"province":"黑龙江","city":"孙吴","zipCode":"164200","areaCode":"0456"},{"province":"黑龙江","city":"逊克","zipCode":"164400","areaCode":"0456"},{"province":"黑龙江","city":"德都","zipCode":"164100","areaCode":"0456"},{"province":"黑龙江","city":"嫩江","zipCode":"161400","areaCode":"0456"},{"province":"黑龙江","city":"五大连池","zipCode":"164500","areaCode":"0456"},{"province":"黑龙江","city":"加格达奇","zipCode":"165000","areaCode":"0457"},{"province":"黑龙江","city":"塔河","zipCode":"165200","areaCode":"0457"},{"province":"黑龙江","city":"呼玛","zipCode":"165100","areaCode":"0457"},{"province":"黑龙江","city":"漠河","zipCode":"165300","areaCode":"0457"},{"province":"黑龙江","city":"伊春","zipCode":"153000","areaCode":"0458"},{"province":"黑龙江","city":"嘉荫","zipCode":"153200","areaCode":"0458"},{"province":"黑龙江","city":"铁力","zipCode":"152500","areaCode":"0458"},{"province":"黑龙江","city":"大庆","zipCode":"163000","areaCode":"0459"},{"province":"黑龙江","city":"林甸","zipCode":"162300","areaCode":"0459"},{"province":"黑龙江","city":"安达","zipCode":"151400","areaCode":"0459"},{"province":"黑龙江","city":"肇州","zipCode":"151200","areaCode":"0459"},{"province":"黑龙江","city":"杜尔伯特","zipCode":"162000","areaCode":"0459"},{"province":"黑龙江","city":"肇源","zipCode":"151300","areaCode":"0459"},{"province":"内蒙古","city":"海拉尔","zipCode":"021000","areaCode":"0470"},{"province":"内蒙古","city":"鄂温克","zipCode":"021100","areaCode":"0470"},{"province":"内蒙古","city":"阿荣旗","zipCode":"162750","areaCode":"0470"},{"province":"内蒙古","city":"牙克石","zipCode":"022100","areaCode":"0470"},{"province":"内蒙古","city":"扎兰屯","zipCode":"162650","areaCode":"0470"},{"province":"内蒙古","city":"鄂伦春","zipCode":"022400","areaCode":"0470"},{"province":"内蒙古","city":"陈巴尔虎旗","zipCode":"021500","areaCode":"0470"},{"province":"内蒙古","city":"新巴尔虎左旗","zipCode":"021200","areaCode":"0470"},{"province":"内蒙古","city":"新巴尔虎右旗","zipCode":"021300","areaCode":"0470"},{"province":"内蒙古","city":"根河","zipCode":"022300","areaCode":"0470"},{"province":"内蒙古","city":"额尔古纳右旗","zipCode":"022200","areaCode":"0470"},{"province":"内蒙古","city":"莫力达瓦旗","zipCode":"162800","areaCode":"0470"},{"province":"内蒙古","city":"满洲里","zipCode":"021400","areaCode":"0470"},{"province":"内蒙古","city":"呼和浩特","zipCode":"010000","areaCode":"0471"},{"province":"内蒙古","city":"托克托","zipCode":"010200","areaCode":"0471"},{"province":"内蒙古","city":"土默特左旗","zipCode":"010100","areaCode":"0471"},{"province":"内蒙古","city":"和林格尔","zipCode":"011500","areaCode":"0471"},{"province":"内蒙古","city":"武川","zipCode":"011700","areaCode":"0471"},{"province":"内蒙古","city":"清水河","zipCode":"011600","areaCode":"0471"},{"province":"内蒙古","city":"鄂托克前旗","zipCode":"016200","areaCode":"0471"},{"province":"内蒙古","city":"包头","zipCode":"014000","areaCode":"0472"},{"province":"内蒙古","city":"固阳","zipCode":"014200","areaCode":"0472"},{"province":"内蒙古","city":"土默特右旗","zipCode":"014100","areaCode":"0472"},{"province":"内蒙古","city":"白云鄂博","zipCode":"014080","areaCode":"0472"},{"province":"内蒙古","city":"达茂旗","zipCode":"014300","areaCode":"0472"},{"province":"内蒙古","city":"乌海","zipCode":"016000","areaCode":"0473"},{"province":"内蒙古","city":"集宁","zipCode":"012000","areaCode":"0474"},{"province":"内蒙古","city":"四子王旗","zipCode":"011800","areaCode":"0474"},{"province":"内蒙古","city":"化德","zipCode":"013300","areaCode":"0474"},{"province":"内蒙古","city":"丰镇","zipCode":"012100","areaCode":"0474"},{"province":"内蒙古","city":"卓资","zipCode":"012300","areaCode":"0474"},{"province":"内蒙古","city":"商都","zipCode":"013400","areaCode":"0474"},{"province":"内蒙古","city":"兴和","zipCode":"013600","areaCode":"0474"},{"province":"内蒙古","city":"凉城","zipCode":"013700","areaCode":"0474"},{"province":"内蒙古","city":"察哈尔右翼前旗","zipCode":"012200","areaCode":"0474"},{"province":"内蒙古","city":"察哈尔右翼中旗","zipCode":"013500","areaCode":"0474"},{"province":"内蒙古","city":"察哈尔右翼后旗","zipCode":"012400","areaCode":"0474"},{"province":"内蒙古","city":"通辽","zipCode":"028000","areaCode":"0475"},{"province":"内蒙古","city":"开鲁","zipCode":"028400","areaCode":"0475"},{"province":"内蒙古","city":"库伦旗","zipCode":"028200","areaCode":"0475"},{"province":"内蒙古","city":"奈曼旗","zipCode":"028300","areaCode":"0475"},{"province":"内蒙古","city":"扎鲁特旗","zipCode":"029100","areaCode":"0475"},{"province":"内蒙古","city":"科尔沁左翼中旗","zipCode":"029300","areaCode":"0475"},{"province":"内蒙古","city":"科尔沁左翼后旗","zipCode":"028100","areaCode":"0475"},{"province":"内蒙古","city":"霍林郭勒","zipCode":"029200","areaCode":"0475"},{"province":"内蒙古","city":"赤峰","zipCode":"024000","areaCode":"0476"},{"province":"内蒙古","city":"阿鲁科尔沁","zipCode":"025500","areaCode":"0476"},{"province":"内蒙古","city":"宁城","zipCode":"024200","areaCode":"0476"},{"province":"内蒙古","city":"敖汉旗","zipCode":"024300","areaCode":"0476"},{"province":"内蒙古","city":"翁牛特旗","zipCode":"024500","areaCode":"0476"},{"province":"内蒙古","city":"巴林左旗","zipCode":"025400","areaCode":"0476"},{"province":"内蒙古","city":"巴林右旗","zipCode":"025100","areaCode":"0476"},{"province":"内蒙古","city":"林西","zipCode":"025200","areaCode":"0476"},{"province":"内蒙古","city":"克什克腾旗","zipCode":"025300","areaCode":"0476"},{"province":"内蒙古","city":"喀喇沁旗","zipCode":"024400","areaCode":"0476"},{"province":"内蒙古","city":"东胜","zipCode":"017000","areaCode":"0477"},{"province":"内蒙古","city":"达拉特旗","zipCode":"014300","areaCode":"0477"},{"province":"内蒙古","city":"伊金霍洛旗","zipCode":"017200","areaCode":"0477"},{"province":"内蒙古","city":"准格尔旗","zipCode":"017100","areaCode":"0477"},{"province":"内蒙古","city":"杭棉旗","zipCode":"017400","areaCode":"0477"},{"province":"内蒙古","city":"乌审","zipCode":"017300","areaCode":"0477"},{"province":"内蒙古","city":"鄂托克旗","zipCode":"016100","areaCode":"0477"},{"province":"内蒙古","city":"鄂托克前旗","zipCode":"016200","areaCode":"0477"},{"province":"内蒙古","city":"临河","zipCode":"015000","areaCode":"0478"},{"province":"内蒙古","city":"五原","zipCode":"015100","areaCode":"0478"},{"province":"内蒙古","city":"磴口","zipCode":"015200","areaCode":"0478"},{"province":"内蒙古","city":"乌拉特前镇","zipCode":"014400","areaCode":"0478"},{"province":"内蒙古","city":"乌拉特中镇","zipCode":"015300","areaCode":"0478"},{"province":"内蒙古","city":"乌拉特后镇","zipCode":"015500","areaCode":"0478"},{"province":"内蒙古","city":"杭锦后旗","zipCode":"015400","areaCode":"0478"},{"province":"内蒙古","city":"锡林浩特","zipCode":"026000","areaCode":"0479"},{"province":"内蒙古","city":"二连浩特","zipCode":"012600","areaCode":"0479"},{"province":"内蒙古","city":"多伦","zipCode":"027300","areaCode":"0479"},{"province":"内蒙古","city":"太仆寺旗","zipCode":"027000","areaCode":"0479"},{"province":"内蒙古","city":"苏尼特左旗","zipCode":"013100","areaCode":"0479"},{"province":"内蒙古","city":"苏尼特右旗","zipCode":"012500","areaCode":"0479"},{"province":"内蒙古","city":"镶黄旗","zipCode":"013200","areaCode":"0479"},{"province":"内蒙古","city":"东乌珠穆沁旗","zipCode":"026300","areaCode":"0479"},{"province":"内蒙古","city":"西乌珠穆沁旗","zipCode":"026200","areaCode":"0479"},{"province":"内蒙古","city":"阿马嗄旗","zipCode":"026100","areaCode":"0479"},{"province":"内蒙古","city":"正镶白旗","zipCode":"027100","areaCode":"0479"},{"province":"内蒙古","city":"正蓝旗","zipCode":"027200","areaCode":"0479"},{"province":"内蒙古","city":"乌兰浩特","zipCode":"137400","areaCode":"0482"},{"province":"内蒙古","city":"扎赉特旗","zipCode":"137600","areaCode":"0482"},{"province":"内蒙古","city":"突泉","zipCode":"037500","areaCode":"0482"},{"province":"内蒙古","city":"科右中旗","zipCode":"029400","areaCode":"0482"},{"province":"内蒙古","city":"阿拉善左旗","zipCode":"750300","areaCode":"04831"},{"province":"内蒙古","city":"阿拉善右旗","zipCode":"737300","areaCode":"04887"},{"province":"内蒙古","city":"额济纳旗","zipCode":"735400","areaCode":"04888"},{"province":"江苏","city":"南京","zipCode":"210000","areaCode":"025"},{"province":"江苏","city":"江浦","zipCode":"211800","areaCode":"025"},{"province":"江苏","city":"六合","zipCode":"211500","areaCode":"025"},{"province":"江苏","city":"江宁","zipCode":"211100","areaCode":"025"},{"province":"江苏","city":"高淳","zipCode":"211300","areaCode":"025"},{"province":"江苏","city":"溧水","zipCode":"211200","areaCode":"025"},{"province":"江苏","city":"无锡","zipCode":"214000","areaCode":"0510"},{"province":"江苏","city":"江阴","zipCode":"214400","areaCode":"0510"},{"province":"江苏","city":"宜兴","zipCode":"214200","areaCode":"0510"},{"province":"江苏","city":"锡山","zipCode":"214100","areaCode":"0510"},{"province":"江苏","city":"镇江","zipCode":"212000","areaCode":"0511"},{"province":"江苏","city":"丹徒","zipCode":"212100","areaCode":"0511"},{"province":"江苏","city":"丹阳","zipCode":"212300","areaCode":"0511"},{"province":"江苏","city":"句容","zipCode":"212400","areaCode":"0511"},{"province":"江苏","city":"扬中","zipCode":"212200","areaCode":"0511"},{"province":"江苏","city":"苏州","zipCode":"215000","areaCode":"0512"},{"province":"江苏","city":"吴江","zipCode":"215200","areaCode":"0512"},{"province":"江苏","city":"吴县","zipCode":"215100","areaCode":"0512"},{"province":"江苏","city":"南通","zipCode":"226300","areaCode":"0513"},{"province":"江苏","city":"如东","zipCode":"226400","areaCode":"0513"},{"province":"江苏","city":"如皋","zipCode":"226500","areaCode":"0513"},{"province":"江苏","city":"通州市","zipCode":"226300","areaCode":"0513"},{"province":"江苏","city":"海门","zipCode":"226100","areaCode":"0513"},{"province":"江苏","city":"启东","zipCode":"226200","areaCode":"0513"},{"province":"江苏","city":"海安","zipCode":"226600","areaCode":"0513"},{"province":"江苏","city":"扬州","zipCode":"225000","areaCode":"0514"},{"province":"江苏","city":"江都","zipCode":"225200","areaCode":"0514"},{"province":"江苏","city":"邗江","zipCode":"225100","areaCode":"0514"},{"province":"江苏","city":"仪征","zipCode":"211400","areaCode":"0514"},{"province":"江苏","city":"高邮","zipCode":"225600","areaCode":"0514"},{"province":"江苏","city":"宝应","zipCode":"225800","areaCode":"0514"},{"province":"江苏","city":"盐城","zipCode":"224000","areaCode":"0515"},{"province":"江苏","city":"响水","zipCode":"224600","areaCode":"0515"},{"province":"江苏","city":"滨海","zipCode":"224500","areaCode":"0515"},{"province":"江苏","city":"阜宁","zipCode":"224400","areaCode":"0515"},{"province":"江苏","city":"射阳","zipCode":"224300","areaCode":"0515"},{"province":"江苏","city":"建湖","zipCode":"224700","areaCode":"0515"},{"province":"江苏","city":"大丰","zipCode":"224100","areaCode":"0515"},{"province":"江苏","city":"东台","zipCode":"224200","areaCode":"0515"},{"province":"江苏","city":"徐州","zipCode":"221000","areaCode":"0516"},{"province":"江苏","city":"铜山","zipCode":"221100","areaCode":"0516"},{"province":"江苏","city":"丰县","zipCode":"221700","areaCode":"0516"},{"province":"江苏","city":"沛县","zipCode":"221600","areaCode":"0516"},{"province":"江苏","city":"邳县","zipCode":"221300","areaCode":"0516"},{"province":"江苏","city":"新沂","zipCode":"221400","areaCode":"0516"},{"province":"江苏","city":"睢宁","zipCode":"221200","areaCode":"0516"},{"province":"江苏","city":"淮安","zipCode":"223000","areaCode":"0517"},{"province":"江苏","city":"淮阴县","zipCode":"223300","areaCode":"0517"},{"province":"江苏","city":"淮安","zipCode":"223200","areaCode":"0517"},{"province":"江苏","city":"洪泽","zipCode":"223100","areaCode":"0517"},{"province":"江苏","city":"金湖","zipCode":"211600","areaCode":"0517"},{"province":"江苏","city":"涟水","zipCode":"223400","areaCode":"0517"},{"province":"江苏","city":"盱眙","zipCode":"211700","areaCode":"0517"},{"province":"江苏","city":"连云港","zipCode":"222000","areaCode":"0518"},{"province":"江苏","city":"东海","zipCode":"222300","areaCode":"0518"},{"province":"江苏","city":"赣榆","zipCode":"222100","areaCode":"0518"},{"province":"江苏","city":"灌云","zipCode":"222200","areaCode":"0518"},{"province":"江苏","city":"灌南","zipCode":"223500","areaCode":"0518"},{"province":"江苏","city":"常州","zipCode":"213000","areaCode":"0519"},{"province":"江苏","city":"武进","zipCode":"213100","areaCode":"0519"},{"province":"江苏","city":"金坛","zipCode":"213200","areaCode":"0519"},{"province":"江苏","city":"溧阳","zipCode":"213300","areaCode":"0519"},{"province":"江苏","city":"张家港","zipCode":"215600","areaCode":"0520"},{"province":"江苏","city":"常熟","zipCode":"215500","areaCode":"0520"},{"province":"江苏","city":"昆山","zipCode":"215300","areaCode":"0520"},{"province":"江苏","city":"太仓","zipCode":"215400","areaCode":"0520"},{"province":"江苏","city":"泰州","zipCode":"225300","areaCode":"0523"},{"province":"江苏","city":"靖江","zipCode":"214500","areaCode":"0523"},{"province":"江苏","city":"泰兴","zipCode":"225400","areaCode":"0523"},{"province":"江苏","city":"姜堰","zipCode":"225500","areaCode":"0523"},{"province":"江苏","city":"兴化","zipCode":"225700","areaCode":"0523"},{"province":"江苏","city":"沐阳","zipCode":"223600","areaCode":"0527"},{"province":"江苏","city":"宿迁","zipCode":"223800","areaCode":"0527"},{"province":"江苏","city":"泗阳","zipCode":"223700","areaCode":"0527"},{"province":"江苏","city":"泗洪","zipCode":"211900","areaCode":"0527"},{"province":"山东","city":"荷泽","zipCode":"274000","areaCode":"0530"},{"province":"山东","city":"巨野","zipCode":"274900","areaCode":"0530"},{"province":"山东","city":"定陶","zipCode":"274100","areaCode":"0530"},{"province":"山东","city":"成武","zipCode":"243600","areaCode":"0530"},{"province":"山东","city":"单县","zipCode":"273700","areaCode":"0530"},{"province":"山东","city":"曹县","zipCode":"274400","areaCode":"0530"},{"province":"山东","city":"东明","zipCode":"274500","areaCode":"0530"},{"province":"山东","city":"鄄城","zipCode":"274600","areaCode":"0530"},{"province":"山东","city":"郓城","zipCode":"274700","areaCode":"0530"},{"province":"山东","city":"济南","zipCode":"250000","areaCode":"0531"},{"province":"山东","city":"长清","zipCode":"250300","areaCode":"0531"},{"province":"山东","city":"章丘","zipCode":"250200","areaCode":"0531"},{"province":"山东","city":"商河","zipCode":"251600","areaCode":"0531"},{"province":"山东","city":"济阳","zipCode":"251400","areaCode":"0531"},{"province":"山东","city":"平阴","zipCode":"250400","areaCode":"0531"},{"province":"山东","city":"青岛","zipCode":"266000","areaCode":"0532"},{"province":"山东","city":"胶南","zipCode":"266400","areaCode":"0532"},{"province":"山东","city":"胶州","zipCode":"266300","areaCode":"0532"},{"province":"山东","city":"平度","zipCode":"262800","areaCode":"0532"},{"province":"山东","city":"莱西","zipCode":"266600","areaCode":"0532"},{"province":"山东","city":"即墨","zipCode":"266200","areaCode":"0532"},{"province":"山东","city":"淄博","zipCode":"255000","areaCode":"0533"},{"province":"山东","city":"桓台","zipCode":"256400","areaCode":"0533"},{"province":"山东","city":"高青","zipCode":"256300","areaCode":"0533"},{"province":"山东","city":"沂源","zipCode":"256100","areaCode":"0533"},{"province":"山东","city":"德州","zipCode":"253000","areaCode":"0534"},{"province":"山东","city":"庆云","zipCode":"253700","areaCode":"0534"},{"province":"山东","city":"监邑","zipCode":"251500","areaCode":"0534"},{"province":"山东","city":"夏津","zipCode":"253200","areaCode":"0534"},{"province":"山东","city":"平原","zipCode":"253100","areaCode":"0534"},{"province":"山东","city":"宁津","zipCode":"253400","areaCode":"0534"},{"province":"山东","city":"齐河","zipCode":"251100","areaCode":"0534"},{"province":"山东","city":"乐陵","zipCode":"253600","areaCode":"0534"},{"province":"山东","city":"武城","zipCode":"253300","areaCode":"0534"},{"province":"山东","city":"禹城","zipCode":"251200","areaCode":"0534"},{"province":"山东","city":"陵县","zipCode":"253500","areaCode":"0534"},{"province":"山东","city":"烟台","zipCode":"264000","areaCode":"0535"},{"province":"山东","city":"招远","zipCode":"265400","areaCode":"0535"},{"province":"山东","city":"莱阳","zipCode":"265200","areaCode":"0535"},{"province":"山东","city":"海阳","zipCode":"265100","areaCode":"0535"},{"province":"山东","city":"长岛","zipCode":"265800","areaCode":"0535"},{"province":"山东","city":"莱州","zipCode":"261400","areaCode":"0535"},{"province":"山东","city":"龙口","zipCode":"265700","areaCode":"0535"},{"province":"山东","city":"蓬莱","zipCode":"265600","areaCode":"0535"},{"province":"山东","city":"栖霞","zipCode":"265300","areaCode":"0535"},{"province":"山东","city":"牟平","zipCode":"264100","areaCode":"0535"},{"province":"山东","city":"潍坊","zipCode":"261000","areaCode":"0536"},{"province":"山东","city":"寿光","zipCode":"262700","areaCode":"0536"},{"province":"山东","city":"昌邑","zipCode":"261300","areaCode":"0536"},{"province":"山东","city":"高密","zipCode":"261500","areaCode":"0536"},{"province":"山东","city":"诸城","zipCode":"262200","areaCode":"0536"},{"province":"山东","city":"安丘","zipCode":"262100","areaCode":"0536"},{"province":"山东","city":"临朐","zipCode":"262600","areaCode":"0536"},{"province":"山东","city":"青州","zipCode":"262500","areaCode":"0536"},{"province":"山东","city":"昌乐","zipCode":"262400","areaCode":"0536"},{"province":"山东","city":"济宁","zipCode":"272100","areaCode":"0537"},{"province":"山东","city":"梁山","zipCode":"274800","areaCode":"0537"},{"province":"山东","city":"曲阜","zipCode":"273100","areaCode":"0537"},{"province":"山东","city":"兖州","zipCode":"272000","areaCode":"0537"},{"province":"山东","city":"邹城","zipCode":"273500","areaCode":"0537"},{"province":"山东","city":"微山","zipCode":"277600","areaCode":"0537"},{"province":"山东","city":"鱼台","zipCode":"272300","areaCode":"0537"},{"province":"山东","city":"金乡","zipCode":"272200","areaCode":"0537"},{"province":"山东","city":"嘉祥","zipCode":"272400","areaCode":"0537"},{"province":"山东","city":"泗水","zipCode":"273200","areaCode":"0537"},{"province":"山东","city":"汶上","zipCode":"272500","areaCode":"0537"},{"province":"山东","city":"泰安","zipCode":"271000","areaCode":"0538"},{"province":"山东","city":"新泰","zipCode":"271200","areaCode":"0538"},{"province":"山东","city":"宁阳","zipCode":"271400","areaCode":"0538"},{"province":"山东","city":"东平","zipCode":"271500","areaCode":"0538"},{"province":"山东","city":"肥城","zipCode":"271600","areaCode":"0538"},{"province":"山东","city":"临沂","zipCode":"276000","areaCode":"0539"},{"province":"山东","city":"苍山","zipCode":"277700","areaCode":"0539"},{"province":"山东","city":"平邑","zipCode":"273300","areaCode":"0539"},{"province":"山东","city":"蒙阴","zipCode":"276200","areaCode":"0539"},{"province":"山东","city":"沂水","zipCode":"276400","areaCode":"0539"},{"province":"山东","city":"沂南","zipCode":"276300","areaCode":"0539"},{"province":"山东","city":"莒南","zipCode":"276600","areaCode":"0539"},{"province":"山东","city":"临沭","zipCode":"276700","areaCode":"0539"},{"province":"山东","city":"郯城","zipCode":"276100","areaCode":"0539"},{"province":"山东","city":"费县","zipCode":"273400","areaCode":"0539"},{"province":"山东","city":"滨州","zipCode":"256600","areaCode":"0543"},{"province":"山东","city":"博兴","zipCode":"256500","areaCode":"0543"},{"province":"山东","city":"邹平","zipCode":"256200","areaCode":"0543"},{"province":"山东","city":"惠民","zipCode":"251700","areaCode":"0543"},{"province":"山东","city":"无棣","zipCode":"251900","areaCode":"0543"},{"province":"山东","city":"沾化","zipCode":"256800","areaCode":"0543"},{"province":"山东","city":"阳信","zipCode":"251800","areaCode":"0543"},{"province":"山东","city":"东营","zipCode":"257000","areaCode":"0546"},{"province":"山东","city":"利津","zipCode":"257400","areaCode":"0546"},{"province":"山东","city":"广饶","zipCode":"257300","areaCode":"0546"},{"province":"山东","city":"垦利","zipCode":"257500","areaCode":"0546"},{"province":"山东","city":"威海","zipCode":"264200","areaCode":"0631"},{"province":"山东","city":"荣城","zipCode":"264300","areaCode":"0631"},{"province":"山东","city":"文登","zipCode":"264400","areaCode":"0631"},{"province":"山东","city":"乳山","zipCode":"264500","areaCode":"0631"},{"province":"山东","city":"枣庄","zipCode":"277100","areaCode":"0632"},{"province":"山东","city":"滕州","zipCode":"277500","areaCode":"0632"},{"province":"山东","city":"日照","zipCode":"276800","areaCode":"0633"},{"province":"山东","city":"五莲","zipCode":"262300","areaCode":"0633"},{"province":"山东","city":"河口","zipCode":"257200","areaCode":"0633"},{"province":"山东","city":"莱芜","zipCode":"271100","areaCode":"0634"},{"province":"山东","city":"聊城","zipCode":"252000","areaCode":"0635"},{"province":"山东","city":"临清","zipCode":"252600","areaCode":"0635"},{"province":"山东","city":"茌平","zipCode":"252100","areaCode":"0635"},{"province":"山东","city":"高唐","zipCode":"251300","areaCode":"0635"},{"province":"山东","city":"东阿","zipCode":"252200","areaCode":"0635"},{"province":"山东","city":"阳谷","zipCode":"252300","areaCode":"0635"},{"province":"山东","city":"莘县","zipCode":"252400","areaCode":"0635"},{"province":"山东","city":"冠县","zipCode":"252500","areaCode":"0635"},{"province":"安徽","city":"寿县","zipCode":"232200","areaCode":"0564"},{"province":"安徽","city":"舒城","zipCode":"231300","areaCode":"0564"},{"province":"安徽","city":"六安","zipCode":"237000","areaCode":"0564"},{"province":"安徽","city":"绩溪","zipCode":"245300","areaCode":"0563"},{"province":"安徽","city":"广德","zipCode":"242200","areaCode":"0563"},{"province":"安徽","city":"旌德","zipCode":"242600","areaCode":"0563"},{"province":"安徽","city":"宁国","zipCode":"242300","areaCode":"0563"},{"province":"安徽","city":"郎溪","zipCode":"242100","areaCode":"0563"},{"province":"安徽","city":"泾县","zipCode":"242500","areaCode":"0563"},{"province":"安徽","city":"宣州","zipCode":"242000","areaCode":"0563"},{"province":"安徽","city":"铜陵县","zipCode":"244100","areaCode":"0562"},{"province":"安徽","city":"铜陵","zipCode":"244000","areaCode":"0562"},{"province":"安徽","city":"濉溪","zipCode":"235100","areaCode":"0561"},{"province":"安徽","city":"淮北","zipCode":"235000","areaCode":"0561"},{"province":"安徽","city":"黟县","zipCode":"245500","areaCode":"0559"},{"province":"安徽","city":"休宁","zipCode":"245400","areaCode":"0559"},{"province":"安徽","city":"祁门","zipCode":"245600","areaCode":"0559"},{"province":"安徽","city":"歙县","zipCode":"245200","areaCode":"0559"},{"province":"安徽","city":"黄山","zipCode":"245000","areaCode":"0559"},{"province":"安徽","city":"利辛","zipCode":"236700","areaCode":"0558"},{"province":"安徽","city":"临泉","zipCode":"236400","areaCode":"0558"},{"province":"安徽","city":"太和","zipCode":"236600","areaCode":"0558"},{"province":"安徽","city":"颍上","zipCode":"236200","areaCode":"0558"},{"province":"安徽","city":"界首","zipCode":"236500","areaCode":"0558"},{"province":"安徽","city":"涡阳","zipCode":"233600","areaCode":"0558"},{"province":"安徽","city":"蒙城","zipCode":"233500","areaCode":"0558"},{"province":"安徽","city":"阜南","zipCode":"236300","areaCode":"0558"},{"province":"安徽","city":"毫州","zipCode":"236800","areaCode":"0558"},{"province":"安徽","city":"阜阳","zipCode":"236000","areaCode":"0558"},{"province":"安徽","city":"泗县","zipCode":"234300","areaCode":"0557"},{"province":"安徽","city":"灵壁","zipCode":"234200","areaCode":"0557"},{"province":"安徽","city":"砀山","zipCode":"235300","areaCode":"0557"},{"province":"安徽","city":"萧县","zipCode":"235200","areaCode":"0557"},{"province":"安徽","city":"宿州","zipCode":"234000","areaCode":"0557"},{"province":"安徽","city":"岳西","zipCode":"246600","areaCode":"0556"},{"province":"安徽","city":"怀宁","zipCode":"246100","areaCode":"0556"},{"province":"安徽","city":"宿松","zipCode":"246500","areaCode":"0556"},{"province":"安徽","city":"潜山","zipCode":"246300","areaCode":"0556"},{"province":"安徽","city":"望江","zipCode":"246200","areaCode":"0556"},{"province":"安徽","city":"桐城","zipCode":"231400","areaCode":"0556"},{"province":"安徽","city":"枞阳","zipCode":"246700","areaCode":"0556"},{"province":"安徽","city":"太湖","zipCode":"246400","areaCode":"0556"},{"province":"安徽","city":"安庆","zipCode":"246000","areaCode":"0556"},{"province":"安徽","city":"当涂","zipCode":"243100","areaCode":"0555"},{"province":"安徽","city":"马鞍山","zipCode":"243000","areaCode":"0555"},{"province":"安徽","city":"凤台","zipCode":"232100","areaCode":"0554"},{"province":"安徽","city":"淮南","zipCode":"232000","areaCode":"0554"},{"province":"安徽","city":"南陵","zipCode":"242400","areaCode":"0553"},{"province":"安徽","city":"繁昌","zipCode":"241200","areaCode":"0553"},{"province":"安徽","city":"芜湖县","zipCode":"241100","areaCode":"0553"},{"province":"安徽","city":"芜湖","zipCode":"241000","areaCode":"0553"},{"province":"安徽","city":"固镇","zipCode":"233700","areaCode":"0552"},{"province":"安徽","city":"怀远","zipCode":"233400","areaCode":"0552"},{"province":"安徽","city":"五河","zipCode":"233300","areaCode":"0552"},{"province":"安徽","city":"蚌埠","zipCode":"233000","areaCode":"0552"},{"province":"安徽","city":"长丰","zipCode":"231100","areaCode":"0551"},{"province":"安徽","city":"肥西","zipCode":"231200","areaCode":"0551"},{"province":"安徽","city":"肥东","zipCode":"231600","areaCode":"0551"},{"province":"安徽","city":"明光","zipCode":"239400","areaCode":"0550"},{"province":"安徽","city":"定远","zipCode":"233200","areaCode":"0550"},{"province":"安徽","city":"来安","zipCode":"239200","areaCode":"0550"},{"province":"安徽","city":"天长","zipCode":"239300","areaCode":"0550"},{"province":"安徽","city":"凤阳","zipCode":"233100","areaCode":"0550"},{"province":"安徽","city":"全椒","zipCode":"239500","areaCode":"0550"},{"province":"安徽","city":"滁州","zipCode":"239000","areaCode":"0550"},{"province":"安徽","city":"合肥","zipCode":"230000","areaCode":"0551"},{"province":"安徽","city":"石台","zipCode":"245100","areaCode":"0566"},{"province":"安徽","city":"东至","zipCode":"247200","areaCode":"0566"},{"province":"安徽","city":"青阳","zipCode":"242800","areaCode":"0566"},{"province":"安徽","city":"贵池","zipCode":"247100","areaCode":"0566"},{"province":"安徽","city":"含山","zipCode":"238100","areaCode":"0565"},{"province":"安徽","city":"和县","zipCode":"238200","areaCode":"0565"},{"province":"安徽","city":"庐江","zipCode":"231500","areaCode":"0565"},{"province":"安徽","city":"无为","zipCode":"238300","areaCode":"0565"},{"province":"安徽","city":"巢湖","zipCode":"238000","areaCode":"0565"},{"province":"安徽","city":"金寨","zipCode":"237300","areaCode":"0564"},{"province":"安徽","city":"霍山","zipCode":"237200","areaCode":"0564"},{"province":"安徽","city":"霍邱","zipCode":"237400","areaCode":"0564"},{"province":"浙江","city":"衢州","zipCode":"324000","areaCode":"0570"},{"province":"浙江","city":"江山","zipCode":"324100","areaCode":"0570"},{"province":"浙江","city":"常山","zipCode":"324200","areaCode":"0570"},{"province":"浙江","city":"开化","zipCode":"324300","areaCode":"0570"},{"province":"浙江","city":"衢县","zipCode":"324000","areaCode":"0570"},{"province":"浙江","city":"龙游","zipCode":"324400","areaCode":"0570"},{"province":"浙江","city":"杭州","zipCode":"310000","areaCode":"0571"},{"province":"浙江","city":"余杭","zipCode":"311100","areaCode":"0571"},{"province":"浙江","city":"富阳","zipCode":"311400","areaCode":"0571"},{"province":"浙江","city":"淳安","zipCode":"311700","areaCode":"0571"},{"province":"浙江","city":"建德","zipCode":"311600","areaCode":"0571"},{"province":"浙江","city":"桐庐","zipCode":"311500","areaCode":"0571"},{"province":"浙江","city":"临安","zipCode":"311300","areaCode":"0571"},{"province":"浙江","city":"萧山","zipCode":"311200","areaCode":"0571"},{"province":"浙江","city":"湖州","zipCode":"313000","areaCode":"0572"},{"province":"浙江","city":"德清","zipCode":"313200","areaCode":"0572"},{"province":"浙江","city":"安吉","zipCode":"313300","areaCode":"0572"},{"province":"浙江","city":"长兴","zipCode":"313100","areaCode":"0572"},{"province":"浙江","city":"嘉兴","zipCode":"314000","areaCode":"0573"},{"province":"浙江","city":"桐乡","zipCode":"314500","areaCode":"0573"},{"province":"浙江","city":"嘉善","zipCode":"314100","areaCode":"0573"},{"province":"浙江","city":"海盐","zipCode":"314300","areaCode":"0573"},{"province":"浙江","city":"平湖","zipCode":"314200","areaCode":"0573"},{"province":"浙江","city":"海宁","zipCode":"314400","areaCode":"0573"},{"province":"浙江","city":"宁波","zipCode":"315000","areaCode":"0574"},{"province":"浙江","city":"镇海","zipCode":"315200","areaCode":"0574"},{"province":"浙江","city":"余姚","zipCode":"315400","areaCode":"0574"},{"province":"浙江","city":"慈溪","zipCode":"315300","areaCode":"0574"},{"province":"浙江","city":"鄞县","zipCode":"315100","areaCode":"0574"},{"province":"浙江","city":"奉化","zipCode":"315500","areaCode":"0574"},{"province":"浙江","city":"宁海","zipCode":"315600","areaCode":"0574"},{"province":"浙江","city":"象山","zipCode":"315700","areaCode":"0574"},{"province":"浙江","city":"绍兴","zipCode":"312000","areaCode":"0575"},{"province":"浙江","city":"绍兴县","zipCode":"312300","areaCode":"0575"},{"province":"浙江","city":"上虞","zipCode":"312300","areaCode":"0575"},{"province":"浙江","city":"嵊县","zipCode":"312400","areaCode":"0575"},{"province":"浙江","city":"新昌","zipCode":"312500","areaCode":"0575"},{"province":"浙江","city":"诸暨","zipCode":"311800","areaCode":"0575"},{"province":"浙江","city":"台州","zipCode":"317000","areaCode":"0576"},{"province":"浙江","city":"临海","zipCode":"317000","areaCode":"0576"},{"province":"浙江","city":"黄岩","zipCode":"317400","areaCode":"0576"},{"province":"浙江","city":"椒江","zipCode":"317700","areaCode":"0576"},{"province":"浙江","city":"温岭","zipCode":"317500","areaCode":"0576"},{"province":"浙江","city":"玉环","zipCode":"317600","areaCode":"0576"},{"province":"浙江","city":"仙居","zipCode":"317300","areaCode":"0576"},{"province":"浙江","city":"天台","zipCode":"317200","areaCode":"0576"},{"province":"浙江","city":"三门","zipCode":"317100","areaCode":"0576"},{"province":"浙江","city":"温州","zipCode":"325000","areaCode":"0577"},{"province":"浙江","city":"瓯海","zipCode":"325000","areaCode":"0577"},{"province":"浙江","city":"永嘉","zipCode":"325100","areaCode":"0577"},{"province":"浙江","city":"乐清","zipCode":"325600","areaCode":"0577"},{"province":"浙江","city":"洞头","zipCode":"325700","areaCode":"0577"},{"province":"浙江","city":"瑞安","zipCode":"325200","areaCode":"0577"},{"province":"浙江","city":"平阳","zipCode":"325400","areaCode":"0577"},{"province":"浙江","city":"苍南","zipCode":"325800","areaCode":"0577"},{"province":"浙江","city":"泰顺","zipCode":"325500","areaCode":"0577"},{"province":"浙江","city":"文成","zipCode":"325300","areaCode":"0577"},{"province":"浙江","city":"丽水","zipCode":"323000","areaCode":"0578"},{"province":"浙江","city":"缙云","zipCode":"321400","areaCode":"0578"},{"province":"浙江","city":"青田","zipCode":"323900","areaCode":"0578"},{"province":"浙江","city":"云和","zipCode":"323600","areaCode":"0578"},{"province":"浙江","city":"庆元","zipCode":"323800","areaCode":"0578"},{"province":"浙江","city":"龙泉","zipCode":"323700","areaCode":"0578"},{"province":"浙江","city":"遂昌","zipCode":"323300","areaCode":"0578"},{"province":"浙江","city":"松阳","zipCode":"323400","areaCode":"0578"},{"province":"浙江","city":"景宁","zipCode":"323500","areaCode":"0578"},{"province":"浙江","city":"金华","zipCode":"321000","areaCode":"0579"},{"province":"浙江","city":"金华县","zipCode":"321000","areaCode":"0579"},{"province":"浙江","city":"义乌","zipCode":"322000","areaCode":"0579"},{"province":"浙江","city":"东阳","zipCode":"322100","areaCode":"0579"},{"province":"浙江","city":"浦江","zipCode":"322200","areaCode":"0579"},{"province":"浙江","city":"永康","zipCode":"321300","areaCode":"0579"},{"province":"浙江","city":"武义","zipCode":"321200","areaCode":"0579"},{"province":"浙江","city":"兰溪","zipCode":"321100","areaCode":"0579"},{"province":"浙江","city":"磐安","zipCode":"322300","areaCode":"0579"},{"province":"浙江","city":"舟山","zipCode":"316000","areaCode":"0580"},{"province":"浙江","city":"岱山","zipCode":"316200","areaCode":"0580"},{"province":"浙江","city":"嵊泗","zipCode":"202450","areaCode":"0580"},{"province":"浙江","city":"普陀","zipCode":"316100","areaCode":"0580"},{"province":"福建","city":"福州","zipCode":"350000","areaCode":"0591"},{"province":"福建","city":"闽候","zipCode":"350100","areaCode":"0591"},{"province":"福建","city":"连江","zipCode":"350500","areaCode":"0591"},{"province":"福建","city":"长乐","zipCode":"350200","areaCode":"0591"},{"province":"福建","city":"福清","zipCode":"350300","areaCode":"0591"},{"province":"福建","city":"平潭","zipCode":"350400","areaCode":"0591"},{"province":"福建","city":"永泰","zipCode":"350700","areaCode":"0591"},{"province":"福建","city":"闽清","zipCode":"350800","areaCode":"0591"},{"province":"福建","city":"罗源","zipCode":"350600","areaCode":"0591"},{"province":"福建","city":"厦门","zipCode":"361000","areaCode":"0592"},{"province":"福建","city":"同安","zipCode":"361100","areaCode":"0592"},{"province":"福建","city":"宁德","zipCode":"352100","areaCode":"0593"},{"province":"福建","city":"福安","zipCode":"355000","areaCode":"0593"},{"province":"福建","city":"柘荣","zipCode":"355300","areaCode":"0593"},{"province":"福建","city":"福鼎","zipCode":"355200","areaCode":"0593"},{"province":"福建","city":"霞浦","zipCode":"355100","areaCode":"0593"},{"province":"福建","city":"寿宁","zipCode":"355500","areaCode":"0593"},{"province":"福建","city":"古田","zipCode":"352200","areaCode":"0593"},{"province":"福建","city":"屏南","zipCode":"352300","areaCode":"0593"},{"province":"福建","city":"周宁","zipCode":"355400","areaCode":"0593"},{"province":"福建","city":"莆田","zipCode":"351100","areaCode":"0594"},{"province":"福建","city":"仙游","zipCode":"351200","areaCode":"0594"},{"province":"福建","city":"泉州","zipCode":"362000","areaCode":"0595"},{"province":"福建","city":"晋江","zipCode":"362200","areaCode":"0595"},{"province":"福建","city":"南安","zipCode":"362300","areaCode":"0595"},{"province":"福建","city":"安溪","zipCode":"362400","areaCode":"0595"},{"province":"福建","city":"永春","zipCode":"362600","areaCode":"0595"},{"province":"福建","city":"德化","zipCode":"362500","areaCode":"0595"},{"province":"福建","city":"惠安","zipCode":"362100","areaCode":"0595"},{"province":"福建","city":"石狮","zipCode":"362700","areaCode":"0595"},{"province":"福建","city":"漳州","zipCode":"363000","areaCode":"0596"},{"province":"福建","city":"南靖","zipCode":"363600","areaCode":"0596"},{"province":"福建","city":"华安","zipCode":"363800","areaCode":"0596"},{"province":"福建","city":"长泰","zipCode":"363900","areaCode":"0596"},{"province":"福建","city":"龙海","zipCode":"363100","areaCode":"0596"},{"province":"福建","city":"漳浦","zipCode":"363200","areaCode":"0596"},{"province":"福建","city":"云霄","zipCode":"363300","areaCode":"0596"},{"province":"福建","city":"东山","zipCode":"363400","areaCode":"0596"},{"province":"福建","city":"诏安","zipCode":"363500","areaCode":"0596"},{"province":"福建","city":"平和","zipCode":"363700","areaCode":"0596"},{"province":"福建","city":"龙岩","zipCode":"364000","areaCode":"0597"},{"province":"福建","city":"漳平","zipCode":"364400","areaCode":"0597"},{"province":"福建","city":"永定","zipCode":"364100","areaCode":"0597"},{"province":"福建","city":"上杭","zipCode":"364200","areaCode":"0597"},{"province":"福建","city":"武平","zipCode":"364300","areaCode":"0597"},{"province":"福建","city":"长汀","zipCode":"366300","areaCode":"0597"},{"province":"福建","city":"连城","zipCode":"366200","areaCode":"0597"},{"province":"福建","city":"三明","zipCode":"365000","areaCode":"0598"},{"province":"福建","city":"沙县","zipCode":"365500","areaCode":"0598"},{"province":"福建","city":"尤溪","zipCode":"365100","areaCode":"0598"},{"province":"福建","city":"大田","zipCode":"366100","areaCode":"0598"},{"province":"福建","city":"永安","zipCode":"366000","areaCode":"0598"},{"province":"福建","city":"清流","zipCode":"365300","areaCode":"0598"},{"province":"福建","city":"宁化","zipCode":"365400","areaCode":"0598"},{"province":"福建","city":"明溪","zipCode":"365200","areaCode":"0598"},{"province":"福建","city":"建宁","zipCode":"354500","areaCode":"0598"},{"province":"福建","city":"泰宁","zipCode":"354400","areaCode":"0598"},{"province":"福建","city":"将乐","zipCode":"353300","areaCode":"0598"},{"province":"福建","city":"南平","zipCode":"353000","areaCode":"0599"},{"province":"福建","city":"建瓯","zipCode":"353100","areaCode":"0599"},{"province":"福建","city":"顺昌","zipCode":"353200","areaCode":"0599"},{"province":"福建","city":"建阳","zipCode":"354200","areaCode":"0599"},{"province":"福建","city":"邵武","zipCode":"354000","areaCode":"0599"},{"province":"福建","city":"浦城","zipCode":"353400","areaCode":"0599"},{"province":"福建","city":"松溪","zipCode":"353500","areaCode":"0599"},{"province":"福建","city":"政和","zipCode":"353600","areaCode":"0599"},{"province":"福建","city":"光泽","zipCode":"354100","areaCode":"0599"},{"province":"福建","city":"武夷山","zipCode":"354300","areaCode":"0599"},{"province":"湖北","city":"武汉","zipCode":"430000","areaCode":"027"},{"province":"湖北","city":"武昌","zipCode":"430200","areaCode":"027"},{"province":"湖北","city":"武昌县","zipCode":"430200","areaCode":"027"},{"province":"湖北","city":"蔡甸","zipCode":"430100","areaCode":"027"},{"province":"湖北","city":"黄陂","zipCode":"432200","areaCode":"027"},{"province":"湖北","city":"新洲","zipCode":"431400","areaCode":"027"},{"province":"湖北","city":"襄樊","zipCode":"441000","areaCode":"0710"},{"province":"湖北","city":"襄阳","zipCode":"441100","areaCode":"0710"},{"province":"湖北","city":"宜城","zipCode":"441400","areaCode":"0710"},{"province":"湖北","city":"南漳","zipCode":"441500","areaCode":"0710"},{"province":"湖北","city":"谷城","zipCode":"441700","areaCode":"0710"},{"province":"湖北","city":"枣阳","zipCode":"441200","areaCode":"0710"},{"province":"湖北","city":"老河口","zipCode":"441800","areaCode":"0710"},{"province":"湖北","city":"保康","zipCode":"441600","areaCode":"0710"},{"province":"湖北","city":"鄂州","zipCode":"436000","areaCode":"0711"},{"province":"湖北","city":"孝感","zipCode":"432100","areaCode":"0712"},{"province":"湖北","city":"大悟","zipCode":"432800","areaCode":"0712"},{"province":"湖北","city":"汉川","zipCode":"432300","areaCode":"0712"},{"province":"湖北","city":"应城","zipCode":"432400","areaCode":"0712"},{"province":"湖北","city":"云梦","zipCode":"432500","areaCode":"0712"},{"province":"湖北","city":"安陆","zipCode":"432600","areaCode":"0712"},{"province":"湖北","city":"广水","zipCode":"432700","areaCode":"0712"},{"province":"湖北","city":"黄冈","zipCode":"436100","areaCode":"0713"},{"province":"湖北","city":"黄州","zipCode":"436100","areaCode":"0713"},{"province":"湖北","city":"麻城","zipCode":"431600","areaCode":"0713"},{"province":"湖北","city":"红安","zipCode":"431500","areaCode":"0713"},{"province":"湖北","city":"浠水","zipCode":"436200","areaCode":"0713"},{"province":"湖北","city":"罗田","zipCode":"436600","areaCode":"0713"},{"province":"湖北","city":"英山","zipCode":"436700","areaCode":"0713"},{"province":"湖北","city":"蕲春","zipCode":"436300","areaCode":"0713"},{"province":"湖北","city":"黄梅","zipCode":"436500","areaCode":"0713"},{"province":"湖北","city":"武穴","zipCode":"436400","areaCode":"0713"},{"province":"湖北","city":"黄石","zipCode":"435000","areaCode":"0714"},{"province":"湖北","city":"大冶","zipCode":"435100","areaCode":"0714"},{"province":"湖北","city":"咸宁","zipCode":"437000","areaCode":"0715"},{"province":"湖北","city":"阳新","zipCode":"435200","areaCode":"0715"},{"province":"湖北","city":"通山","zipCode":"437600","areaCode":"0715"},{"province":"湖北","city":"崇阳","zipCode":"437500","areaCode":"0715"},{"province":"湖北","city":"通城","zipCode":"437400","areaCode":"0715"},{"province":"湖北","city":"蒲圻","zipCode":"437300","areaCode":"0715"},{"province":"湖北","city":"嘉鱼","zipCode":"437200","areaCode":"0715"},{"province":"湖北","city":"荆沙","zipCode":"434100","areaCode":"0716"},{"province":"湖北","city":"沙市","zipCode":"434000","areaCode":"0716"},{"province":"湖北","city":"监利","zipCode":"433300","areaCode":"0716"},{"province":"湖北","city":"石首","zipCode":"434400","areaCode":"0716"},{"province":"湖北","city":"公安","zipCode":"434300","areaCode":"0716"},{"province":"湖北","city":"松滋","zipCode":"434200","areaCode":"0716"},{"province":"湖北","city":"钟祥","zipCode":"431900","areaCode":"0716"},{"province":"湖北","city":"京山","zipCode":"431800","areaCode":"0716"},{"province":"湖北","city":"宜昌","zipCode":"443000","areaCode":"0717"},{"province":"湖北","city":"宜昌县","zipCode":"443100","areaCode":"0717"},{"province":"湖北","city":"远发","zipCode":"444200","areaCode":"0717"},{"province":"湖北","city":"当阳","zipCode":"444100","areaCode":"0717"},{"province":"湖北","city":"枝江","zipCode":"443200","areaCode":"0717"},{"province":"湖北","city":"枝城","zipCode":"443300","areaCode":"0717"},{"province":"湖北","city":"长阳","zipCode":"443500","areaCode":"0717"},{"province":"湖北","city":"五峰","zipCode":"443400","areaCode":"0717"},{"province":"湖北","city":"秭归","zipCode":"443600","areaCode":"0717"},{"province":"湖北","city":"兴山","zipCode":"443700","areaCode":"0717"},{"province":"湖北","city":"恩施","zipCode":"445000","areaCode":"0718"},{"province":"湖北","city":"建始","zipCode":"445300","areaCode":"0718"},{"province":"湖北","city":"巴东","zipCode":"444300","areaCode":"0718"},{"province":"湖北","city":"鹤峰","zipCode":"445800","areaCode":"0718"},{"province":"湖北","city":"宣恩","zipCode":"445500","areaCode":"0718"},{"province":"湖北","city":"来凤","zipCode":"445700","areaCode":"0718"},{"province":"湖北","city":"咸丰","zipCode":"445600","areaCode":"0718"},{"province":"湖北","city":"利川","zipCode":"445400","areaCode":"0718"},{"province":"湖北","city":"十堰","zipCode":"442000","areaCode":"0719"},{"province":"湖北","city":"郧县","zipCode":"442500","areaCode":"0719"},{"province":"湖北","city":"丹江口","zipCode":"441900","areaCode":"0719"},{"province":"湖北","city":"房县","zipCode":"442100","areaCode":"0719"},{"province":"湖北","city":"神农架","zipCode":"442400","areaCode":"0719"},{"province":"湖北","city":"竹山","zipCode":"442200","areaCode":"0719"},{"province":"湖北","city":"竹溪","zipCode":"442300","areaCode":"0719"},{"province":"湖北","city":"郧西","zipCode":"442600","areaCode":"0719"},{"province":"湖北","city":"随枣","zipCode":"441200","areaCode":"0722"},{"province":"湖北","city":"随州","zipCode":"441300","areaCode":"0722"},{"province":"湖北","city":"荆门","zipCode":"434500","areaCode":"0727"},{"province":"湖北","city":"江汉","zipCode":"433000","areaCode":"0728"},{"province":"湖北","city":"天门","zipCode":"431700","areaCode":"0728"},{"province":"湖北","city":"潜江","zipCode":"433100","areaCode":"0728"},{"province":"湖北","city":"洪湖","zipCode":"433200","areaCode":"0728"},{"province":"湖南","city":"岳阳","zipCode":"414000","areaCode":"0730"},{"province":"湖南","city":"岳阳县","zipCode":"414100","areaCode":"0730"},{"province":"湖南","city":"湘阴","zipCode":"410500","areaCode":"0730"},{"province":"湖南","city":"华容","zipCode":"414200","areaCode":"0730"},{"province":"湖南","city":"临湘","zipCode":"414300","areaCode":"0730"},{"province":"湖南","city":"平江","zipCode":"410400","areaCode":"0730"},{"province":"湖南","city":"汨罗","zipCode":"414400","areaCode":"0730"},{"province":"湖南","city":"长沙","zipCode":"410000","areaCode":"0731"},{"province":"湖南","city":"长沙县","zipCode":"410100","areaCode":"0731"},{"province":"湖南","city":"宁乡","zipCode":"410600","areaCode":"0731"},{"province":"湖南","city":"望城","zipCode":"410200","areaCode":"0731"},{"province":"湖南","city":"浏阳","zipCode":"410300","areaCode":"0731"},{"province":"湖南","city":"湘潭","zipCode":"411100","areaCode":"0732"},{"province":"湖南","city":"湘潭县","zipCode":"411200","areaCode":"0732"},{"province":"湖南","city":"韶山","zipCode":"411300","areaCode":"0732"},{"province":"湖南","city":"湘乡","zipCode":"411400","areaCode":"0732"},{"province":"湖南","city":"株洲","zipCode":"412000","areaCode":"0733"},{"province":"湖南","city":"株洲县","zipCode":"412100","areaCode":"0733"},{"province":"湖南","city":"攸县","zipCode":"412300","areaCode":"0733"},{"province":"湖南","city":"茶陵","zipCode":"412400","areaCode":"0733"},{"province":"湖南","city":"醴陵","zipCode":"412200","areaCode":"0733"},{"province":"湖南","city":"炎陵","zipCode":"412500","areaCode":"0733"},{"province":"湖南","city":"衡阳","zipCode":"421000","areaCode":"0734"},{"province":"湖南","city":"衡阳县","zipCode":"421200","areaCode":"0734"},{"province":"湖南","city":"耒阳","zipCode":"421800","areaCode":"0734"},{"province":"湖南","city":"常宁","zipCode":"421500","areaCode":"0734"},{"province":"湖南","city":"衡南","zipCode":"421100","areaCode":"0734"},{"province":"湖南","city":"衡东","zipCode":"421400","areaCode":"0734"},{"province":"湖南","city":"衡山","zipCode":"421300","areaCode":"0734"},{"province":"湖南","city":"祁东","zipCode":"421600","areaCode":"0734"},{"province":"湖南","city":"郴州","zipCode":"423000","areaCode":"0735"},{"province":"湖南","city":"资兴","zipCode":"423400","areaCode":"0735"},{"province":"湖南","city":"桂东","zipCode":"423500","areaCode":"0735"},{"province":"湖南","city":"汝城","zipCode":"424100","areaCode":"0735"},{"province":"湖南","city":"临武","zipCode":"424300","areaCode":"0735"},{"province":"湖南","city":"嘉禾","zipCode":"424500","areaCode":"0735"},{"province":"湖南","city":"安仁","zipCode":"423600","areaCode":"0735"},{"province":"湖南","city":"桂阳","zipCode":"424400","areaCode":"0735"},{"province":"湖南","city":"永兴","zipCode":"423300","areaCode":"0735"},{"province":"湖南","city":"宜章","zipCode":"424200","areaCode":"0735"},{"province":"湖南","city":"常德","zipCode":"415100","areaCode":"0736"},{"province":"湖南","city":"桃源","zipCode":"425700","areaCode":"0736"},{"province":"湖南","city":"汉寿","zipCode":"415900","areaCode":"0736"},{"province":"湖南","city":"石门","zipCode":"415300","areaCode":"0736"},{"province":"湖南","city":"澧县","zipCode":"425500","areaCode":"0736"},{"province":"湖南","city":"津市","zipCode":"415400","areaCode":"0736"},{"province":"湖南","city":"安乡","zipCode":"415600","areaCode":"0736"},{"province":"湖南","city":"临澧","zipCode":"415200","areaCode":"0736"},{"province":"湖南","city":"益阳","zipCode":"413000","areaCode":"0737"},{"province":"湖南","city":"桃江","zipCode":"413400","areaCode":"0737"},{"province":"湖南","city":"安化","zipCode":"413500","areaCode":"0737"},{"province":"湖南","city":"南县","zipCode":"413200","areaCode":"0737"},{"province":"湖南","city":"沅江","zipCode":"413100","areaCode":"0737"},{"province":"湖南","city":"娄底","zipCode":"417000","areaCode":"0738"},{"province":"湖南","city":"双峰","zipCode":"411500","areaCode":"0738"},{"province":"湖南","city":"冷水江","zipCode":"417500","areaCode":"0738"},{"province":"湖南","city":"新化","zipCode":"417600","areaCode":"0738"},{"province":"湖南","city":"涟源","zipCode":"417100","areaCode":"0738"},{"province":"湖南","city":"邵阳","zipCode":"422000","areaCode":"0739"},{"province":"湖南","city":"邵阳县","zipCode":"422100","areaCode":"0739"},{"province":"湖南","city":"新宁","zipCode":"422700","areaCode":"0739"},{"province":"湖南","city":"城步","zipCode":"422500","areaCode":"0739"},{"province":"湖南","city":"新邵","zipCode":"422900","areaCode":"0739"},{"province":"湖南","city":"绥宁","zipCode":"422600","areaCode":"0739"},{"province":"湖南","city":"武岗","zipCode":"422400","areaCode":"0739"},{"province":"湖南","city":"洞口","zipCode":"422300","areaCode":"0739"},{"province":"湖南","city":"邵东","zipCode":"422800","areaCode":"0739"},{"province":"湖南","city":"隆回","zipCode":"422200","areaCode":"0739"},{"province":"湖南","city":"吉首","zipCode":"416000","areaCode":"0743"},{"province":"湖南","city":"凤凰","zipCode":"416200","areaCode":"0743"},{"province":"湖南","city":"龙山","zipCode":"416800","areaCode":"0743"},{"province":"湖南","city":"永顺","zipCode":"416700","areaCode":"0743"},{"province":"湖南","city":"保靖","zipCode":"416500","areaCode":"0743"},{"province":"湖南","city":"花垣","zipCode":"416400","areaCode":"0743"},{"province":"湖南","city":"古丈","zipCode":"416300","areaCode":"0743"},{"province":"湖南","city":"泸溪","zipCode":"416100","areaCode":"0743"},{"province":"湖南","city":"张家界","zipCode":"416600","areaCode":"0744"},{"province":"湖南","city":"桑植","zipCode":"416900","areaCode":"0744"},{"province":"湖南","city":"慈利","zipCode":"415800","areaCode":"0744"},{"province":"湖南","city":"怀化","zipCode":"418000","areaCode":"0745"},{"province":"湖南","city":"麻阳","zipCode":"419400","areaCode":"0745"},{"province":"湖南","city":"芷江","zipCode":"419100","areaCode":"0745"},{"province":"湖南","city":"黔阳","zipCode":"418100","areaCode":"0745"},{"province":"湖南","city":"溆浦","zipCode":"419300","areaCode":"0745"},{"province":"湖南","city":"通道","zipCode":"418500","areaCode":"0745"},{"province":"湖南","city":"靖州","zipCode":"418400","areaCode":"0745"},{"province":"湖南","city":"会同","zipCode":"418300","areaCode":"0745"},{"province":"湖南","city":"新晃","zipCode":"419200","areaCode":"0745"},{"province":"湖南","city":"辰溪","zipCode":"419500","areaCode":"0745"},{"province":"湖南","city":"沅陵","zipCode":"419600","areaCode":"0745"},{"province":"湖南","city":"洪江","zipCode":"418200","areaCode":"0745"},{"province":"湖南","city":"永州","zipCode":"425000","areaCode":"0746"},{"province":"湖南","city":"东安","zipCode":"425900","areaCode":"0746"},{"province":"湖南","city":"祁阳","zipCode":"421700","areaCode":"0746"},{"province":"湖南","city":"新田","zipCode":"425700","areaCode":"0746"},{"province":"湖南","city":"宁远","zipCode":"425600","areaCode":"0746"},{"province":"湖南","city":"蓝山","zipCode":"425800","areaCode":"0746"},{"province":"湖南","city":"江华","zipCode":"425500","areaCode":"0746"},{"province":"湖南","city":"江永","zipCode":"425400","areaCode":"0746"},{"province":"湖南","city":"道县","zipCode":"425300","areaCode":"0746"},{"province":"湖南","city":"双牌","zipCode":"425200","areaCode":"0746"},{"province":"广东","city":"广州","zipCode":"510000","areaCode":"020"},{"province":"广东","city":"番禺","zipCode":"511400","areaCode":"020"},{"province":"广东","city":"花县","zipCode":"510800","areaCode":"020"},{"province":"广东","city":"从化","zipCode":"510900","areaCode":"020"},{"province":"广东","city":"增城","zipCode":"511300","areaCode":"020"},{"province":"广东","city":"汕尾","zipCode":"516600","areaCode":"0660"},{"province":"广东","city":"海丰","zipCode":"516400","areaCode":"0660"},{"province":"广东","city":"陆河","zipCode":"516700","areaCode":"0660"},{"province":"广东","city":"陆丰","zipCode":"516500","areaCode":"0660"},{"province":"广东","city":"潮阳","zipCode":"515100","areaCode":"0661"},{"province":"广东","city":"阳江","zipCode":"529500","areaCode":"0662"},{"province":"广东","city":"阳春","zipCode":"529600","areaCode":"0662"},{"province":"广东","city":"阳东","zipCode":"529500","areaCode":"0662"},{"province":"广东","city":"阳西","zipCode":"529800","areaCode":"0662"},{"province":"广东","city":"揭阳","zipCode":"515500","areaCode":"0663"},{"province":"广东","city":"揭东","zipCode":"515500","areaCode":"0663"},{"province":"广东","city":"惠来","zipCode":"515200","areaCode":"0663"},{"province":"广东","city":"揭西","zipCode":"515400","areaCode":"0663"},{"province":"广东","city":"普宁","zipCode":"515300","areaCode":"0663"},{"province":"广东","city":"茂名","zipCode":"525000","areaCode":"0668"},{"province":"广东","city":"化州","zipCode":"525100","areaCode":"0668"},{"province":"广东","city":"高州","zipCode":"525200","areaCode":"0668"},{"province":"广东","city":"信宜","zipCode":"525300","areaCode":"0668"},{"province":"广东","city":"电白","zipCode":"525400","areaCode":"0668"},{"province":"广东","city":"江门","zipCode":"529000","areaCode":"0750"},{"province":"广东","city":"台山","zipCode":"529200","areaCode":"0750"},{"province":"广东","city":"开平","zipCode":"529300","areaCode":"0750"},{"province":"广东","city":"恩平","zipCode":"529400","areaCode":"0750"},{"province":"广东","city":"新会","zipCode":"529100","areaCode":"0750"},{"province":"广东","city":"鹤山","zipCode":"529700","areaCode":"0750"},{"province":"广东","city":"韶关","zipCode":"512000","areaCode":"0751"},{"province":"广东","city":"曲江","zipCode":"512100","areaCode":"0751"},{"province":"广东","city":"翁源","zipCode":"512600","areaCode":"0751"},{"province":"广东","city":"新丰","zipCode":"511100","areaCode":"0751"},{"province":"广东","city":"始兴","zipCode":"512500","areaCode":"0751"},{"province":"广东","city":"仁化","zipCode":"512300","areaCode":"0751"},{"province":"广东","city":"南雄","zipCode":"512400","areaCode":"0751"},{"province":"广东","city":"乳源","zipCode":"512700","areaCode":"0751"},{"province":"广东","city":"乐昌","zipCode":"512200","areaCode":"0751"},{"province":"广东","city":"惠州","zipCode":"516000","areaCode":"0752"},{"province":"广东","city":"惠东","zipCode":"526300","areaCode":"0752"},{"province":"广东","city":"惠阳","zipCode":"516200","areaCode":"0752"},{"province":"广东","city":"博罗","zipCode":"516100","areaCode":"0752"},{"province":"广东","city":"龙门","zipCode":"511200","areaCode":"0752"},{"province":"广东","city":"梅州","zipCode":"514000","areaCode":"0753"},{"province":"广东","city":"梅县","zipCode":"514000","areaCode":"0753"},{"province":"广东","city":"蕉岭","zipCode":"514100","areaCode":"0753"},{"province":"广东","city":"大埔","zipCode":"514200","areaCode":"0753"},{"province":"广东","city":"丰顺","zipCode":"514300","areaCode":"0753"},{"province":"广东","city":"五华","zipCode":"514400","areaCode":"0753"},{"province":"广东","city":"兴宁","zipCode":"514500","areaCode":"0753"},{"province":"广东","city":"平远","zipCode":"514600","areaCode":"0753"},{"province":"广东","city":"汕头","zipCode":"515000","areaCode":"0754"},{"province":"广东","city":"澄海","zipCode":"515800","areaCode":"0754"},{"province":"广东","city":"南澳","zipCode":"515900","areaCode":"0754"},{"province":"广东","city":"深圳","zipCode":"518000","areaCode":"0755"},{"province":"广东","city":"宝安","zipCode":"518100","areaCode":"0755"},{"province":"广东","city":"珠海","zipCode":"519000","areaCode":"0756"},{"province":"广东","city":"斗门","zipCode":"519100","areaCode":"0756"},{"province":"广东","city":"佛山","zipCode":"528000","areaCode":"0757"},{"province":"广东","city":"南海","zipCode":"528200","areaCode":"0757"},{"province":"广东","city":"高明","zipCode":"528500","areaCode":"0757"},{"province":"广东","city":"三水","zipCode":"528100","areaCode":"0757"},{"province":"广东","city":"肇庆","zipCode":"526000","areaCode":"0758"},{"province":"广东","city":"高要","zipCode":"526100","areaCode":"0758"},{"province":"广东","city":"四会","zipCode":"526200","areaCode":"0758"},{"province":"广东","city":"怀集","zipCode":"526400","areaCode":"0758"},{"province":"广东","city":"封开","zipCode":"526500","areaCode":"0758"},{"province":"广东","city":"德庆","zipCode":"526600","areaCode":"0758"},{"province":"广东","city":"广宁","zipCode":"526300","areaCode":"0758"},{"province":"广东","city":"湛江","zipCode":"524000","areaCode":"0759"},{"province":"广东","city":"遂溪","zipCode":"524300","areaCode":"0759"},{"province":"广东","city":"廉江","zipCode":"524400","areaCode":"0759"},{"province":"广东","city":"吴川","zipCode":"524500","areaCode":"0759"},{"province":"广东","city":"徐闻","zipCode":"524100","areaCode":"0759"},{"province":"广东","city":"雷州","zipCode":"524200","areaCode":"0759"},{"province":"广东","city":"中山","zipCode":"528400","areaCode":"0760"},{"province":"广东","city":"河源","zipCode":"517000","areaCode":"0762"},{"province":"广东","city":"连平","zipCode":"517100","areaCode":"0762"},{"province":"广东","city":"和平","zipCode":"517200","areaCode":"0762"},{"province":"广东","city":"龙川","zipCode":"517300","areaCode":"0762"},{"province":"广东","city":"紫金","zipCode":"517400","areaCode":"0762"},{"province":"广东","city":"清远","zipCode":"511500","areaCode":"0763"},{"province":"广东","city":"佛冈","zipCode":"511600","areaCode":"0763"},{"province":"广东","city":"英德","zipCode":"513000","areaCode":"0763"},{"province":"广东","city":"连山","zipCode":"513200","areaCode":"0763"},{"province":"广东","city":"阳山","zipCode":"513100","areaCode":"0763"},{"province":"广东","city":"连南","zipCode":"513300","areaCode":"0763"},{"province":"广东","city":"连州","zipCode":"513400","areaCode":"0763"},{"province":"广东","city":"顺德","zipCode":"528300","areaCode":"0765"},{"province":"广东","city":"云浮","zipCode":"527300","areaCode":"0766"},{"province":"广东","city":"罗定","zipCode":"527200","areaCode":"0766"},{"province":"广东","city":"郁南","zipCode":"527100","areaCode":"0766"},{"province":"广东","city":"新兴","zipCode":"527400","areaCode":"0766"},{"province":"广东","city":"潮州","zipCode":"515600","areaCode":"0768"},{"province":"广东","city":"潮安","zipCode":"515600","areaCode":"0768"},{"province":"广东","city":"饶平","zipCode":"515700","areaCode":"0768"},{"province":"广东","city":"东莞","zipCode":"511700","areaCode":"0769"},{"province":"广西","city":"防城港","zipCode":"535700","areaCode":"0770"},{"province":"广西","city":"上思","zipCode":"535500","areaCode":"0770"},{"province":"广西","city":"南宁","zipCode":"530000","areaCode":"0771"},{"province":"广西","city":"上林","zipCode":"530500","areaCode":"0771"},{"province":"广西","city":"凭祥","zipCode":"532600","areaCode":"0771"},{"province":"广西","city":"邕宁","zipCode":"530200","areaCode":"0771"},{"province":"广西","city":"崇左","zipCode":"532200","areaCode":"0771"},{"province":"广西","city":"宁明","zipCode":"532500","areaCode":"0771"},{"province":"广西","city":"武鸣","zipCode":"530100","areaCode":"0771"},{"province":"广西","city":"马山","zipCode":"530600","areaCode":"0771"},{"province":"广西","city":"龙州","zipCode":"532400","areaCode":"0771"},{"province":"广西","city":"宾阳","zipCode":"530400","areaCode":"0771"},{"province":"广西","city":"大新","zipCode":"532300","areaCode":"0771"},{"province":"广西","city":"天等","zipCode":"532800","areaCode":"0771"},{"province":"广西","city":"横县","zipCode":"530300","areaCode":"0771"},{"province":"广西","city":"隆安","zipCode":"532700","areaCode":"0771"},{"province":"广西","city":"扶绥","zipCode":"532100","areaCode":"0771"},{"province":"广西","city":"柳州","zipCode":"545000","areaCode":"0772"},{"province":"广西","city":"柳江","zipCode":"545100","areaCode":"0772"},{"province":"广西","city":"鹿寨","zipCode":"545600","areaCode":"0772"},{"province":"广西","city":"柳城","zipCode":"545200","areaCode":"0772"},{"province":"广西","city":"三江","zipCode":"545500","areaCode":"0772"},{"province":"广西","city":"融安","zipCode":"545400","areaCode":"0772"},{"province":"广西","city":"融冰","zipCode":"545300","areaCode":"0772"},{"province":"广西","city":"金秀","zipCode":"545700","areaCode":"0772"},{"province":"广西","city":"合山","zipCode":"546500","areaCode":"0772"},{"province":"广西","city":"忻城","zipCode":"546200","areaCode":"0772"},{"province":"广西","city":"来宾","zipCode":"546100","areaCode":"0772"},{"province":"广西","city":"武宣","zipCode":"545900","areaCode":"0772"},{"province":"广西","city":"象州","zipCode":"545800","areaCode":"0772"},{"province":"广西","city":"桂林","zipCode":"541000","areaCode":"0773"},{"province":"广西","city":"阳朔","zipCode":"541900","areaCode":"0773"},{"province":"广西","city":"临桂","zipCode":"541100","areaCode":"0773"},{"province":"广西","city":"荔浦","zipCode":"546600","areaCode":"0773"},{"province":"广西","city":"灌阳","zipCode":"541600","areaCode":"0773"},{"province":"广西","city":"平乐","zipCode":"542400","areaCode":"0773"},{"province":"广西","city":"兴安","zipCode":"541300","areaCode":"0773"},{"province":"广西","city":"灵川","zipCode":"541200","areaCode":"0773"},{"province":"广西","city":"全州","zipCode":"541500","areaCode":"0773"},{"province":"广西","city":"永福","zipCode":"541800","areaCode":"0773"},{"province":"广西","city":"龙胜","zipCode":"541700","areaCode":"0773"},{"province":"广西","city":"恭城","zipCode":"542500","areaCode":"0773"},{"province":"广西","city":"资源","zipCode":"541400","areaCode":"0773"},{"province":"广西","city":"梧州","zipCode":"543000","areaCode":"0774"},{"province":"广西","city":"苍梧","zipCode":"543100","areaCode":"0774"},{"province":"广西","city":"藤县","zipCode":"543300","areaCode":"0774"},{"province":"广西","city":"岑溪","zipCode":"543200","areaCode":"0774"},{"province":"广西","city":"昭平","zipCode":"546800","areaCode":"0774"},{"province":"广西","city":"贺县","zipCode":"542800","areaCode":"0774"},{"province":"广西","city":"蒙山","zipCode":"546700","areaCode":"0774"},{"province":"广西","city":"钟山","zipCode":"542600","areaCode":"0774"},{"province":"广西","city":"富川","zipCode":"542700","areaCode":"0774"},{"province":"广西","city":"玉林","zipCode":"537000","areaCode":"0775"},{"province":"广西","city":"容县","zipCode":"537500","areaCode":"0775"},{"province":"广西","city":"北流","zipCode":"537400","areaCode":"0775"},{"province":"广西","city":"陆川","zipCode":"537700","areaCode":"0775"},{"province":"广西","city":"博白","zipCode":"537600","areaCode":"0775"},{"province":"广西","city":"贵港","zipCode":"537100","areaCode":"0775"},{"province":"广西","city":"桂平","zipCode":"537200","areaCode":"0775"},{"province":"广西","city":"平南","zipCode":"537300","areaCode":"0775"},{"province":"广西","city":"百色","zipCode":"533000","areaCode":"0776"},{"province":"广西","city":"田林","zipCode":"533300","areaCode":"0776"},{"province":"广西","city":"隆林","zipCode":"533400","areaCode":"0776"},{"province":"广西","city":"西林","zipCode":"533500","areaCode":"0776"},{"province":"广西","city":"凌云","zipCode":"533100","areaCode":"0776"},{"province":"广西","city":"田阳","zipCode":"533600","areaCode":"0776"},{"province":"广西","city":"靖西","zipCode":"533800","areaCode":"0776"},{"province":"广西","city":"田东","zipCode":"531500","areaCode":"0776"},{"province":"广西","city":"乐业","zipCode":"533200","areaCode":"0776"},{"province":"广西","city":"平果","zipCode":"531400","areaCode":"0776"},{"province":"广西","city":"德保","zipCode":"533700","areaCode":"0776"},{"province":"广西","city":"那坡","zipCode":"533900","areaCode":"0776"},{"province":"广西","city":"钦州","zipCode":"535000","areaCode":"0777"},{"province":"广西","city":"灵山","zipCode":"535400","areaCode":"0777"},{"province":"广西","city":"浦北","zipCode":"535300","areaCode":"0777"},{"province":"广西","city":"河池","zipCode":"547000","areaCode":"0778"},{"province":"广西","city":"宜州","zipCode":"546300","areaCode":"0778"},{"province":"广西","city":"罗城","zipCode":"546400","areaCode":"0778"},{"province":"广西","city":"环江","zipCode":"547100","areaCode":"0778"},{"province":"广西","city":"天峨","zipCode":"547300","areaCode":"0778"},{"province":"广西","city":"凤山","zipCode":"547600","areaCode":"0778"},{"province":"广西","city":"东兰","zipCode":"547400","areaCode":"0778"},{"province":"广西","city":"南丹","zipCode":"547200","areaCode":"0778"},{"province":"广西","city":"巴马","zipCode":"547500","areaCode":"0778"},{"province":"广西","city":"都安","zipCode":"530700","areaCode":"0778"},{"province":"广西","city":"大化","zipCode":"530800","areaCode":"0778"},{"province":"广西","city":"北海","zipCode":"536000","areaCode":"0779"},{"province":"广西","city":"合浦","zipCode":"536100","areaCode":"0779"},{"province":"江西","city":"新余","zipCode":"336500","areaCode":"0790"},{"province":"江西","city":"分宜","zipCode":"336600","areaCode":"0790"},{"province":"江西","city":"南昌","zipCode":"330000","areaCode":"0791"},{"province":"江西","city":"南昌县","zipCode":"330200","areaCode":"0791"},{"province":"江西","city":"新建","zipCode":"330100","areaCode":"0791"},{"province":"江西","city":"进贤","zipCode":"331700","areaCode":"0791"},{"province":"江西","city":"安义","zipCode":"330500","areaCode":"0791"},{"province":"江西","city":"九江","zipCode":"332000","areaCode":"0792"},{"province":"江西","city":"九江县","zipCode":"332100","areaCode":"0792"},{"province":"江西","city":"庐山","zipCode":"332900","areaCode":"0792"},{"province":"江西","city":"修水","zipCode":"322400","areaCode":"0792"},{"province":"江西","city":"湖口","zipCode":"332500","areaCode":"0792"},{"province":"江西","city":"星子","zipCode":"332800","areaCode":"0792"},{"province":"江西","city":"瑞昌","zipCode":"333200","areaCode":"0792"},{"province":"江西","city":"德安","zipCode":"330400","areaCode":"0792"},{"province":"江西","city":"彭泽","zipCode":"332700","areaCode":"0792"},{"province":"江西","city":"都昌","zipCode":"332600","areaCode":"0792"},{"province":"江西","city":"永修","zipCode":"330300","areaCode":"0792"},{"province":"江西","city":"武宁","zipCode":"332300","areaCode":"0792"},{"province":"江西","city":"上饶","zipCode":"334000","areaCode":"0793"},{"province":"江西","city":"上饶县","zipCode":"334100","areaCode":"0793"},{"province":"江西","city":"玉山","zipCode":"334700","areaCode":"0793"},{"province":"江西","city":"余干","zipCode":"335100","areaCode":"0793"},{"province":"江西","city":"弋阳","zipCode":"334400","areaCode":"0793"},{"province":"江西","city":"波阳","zipCode":"333100","areaCode":"0793"},{"province":"江西","city":"广丰","zipCode":"334600","areaCode":"0793"},{"province":"江西","city":"万年","zipCode":"335500","areaCode":"0793"},{"province":"江西","city":"铅山","zipCode":"334500","areaCode":"0793"},{"province":"江西","city":"横峰","zipCode":"334300","areaCode":"0793"},{"province":"江西","city":"婺源","zipCode":"333200","areaCode":"0793"},{"province":"江西","city":"德兴","zipCode":"334200","areaCode":"0793"},{"province":"江西","city":"抚州","zipCode":"344000","areaCode":"0794"},{"province":"江西","city":"资溪","zipCode":"335300","areaCode":"0794"},{"province":"江西","city":"广昌","zipCode":"344900","areaCode":"0794"},{"province":"江西","city":"东乡","zipCode":"331800","areaCode":"0794"},{"province":"江西","city":"金溪","zipCode":"344800","areaCode":"0794"},{"province":"江西","city":"崇仁","zipCode":"344200","areaCode":"0794"},{"province":"江西","city":"临川","zipCode":"344100","areaCode":"0794"},{"province":"江西","city":"宜黄","zipCode":"344400","areaCode":"0794"},{"province":"江西","city":"尔安","zipCode":"344300","areaCode":"0794"},{"province":"江西","city":"南城","zipCode":"344700","areaCode":"0794"},{"province":"江西","city":"南丰","zipCode":"344500","areaCode":"0794"},{"province":"江西","city":"黎川","zipCode":"344600","areaCode":"0794"},{"province":"江西","city":"宜春","zipCode":"336000","areaCode":"0795"},{"province":"江西","city":"宜丰","zipCode":"336300","areaCode":"0795"},{"province":"江西","city":"上高","zipCode":"336400","areaCode":"0795"},{"province":"江西","city":"奉新","zipCode":"330700","areaCode":"0795"},{"province":"江西","city":"靖安","zipCode":"330600","areaCode":"0795"},{"province":"江西","city":"高安","zipCode":"330800","areaCode":"0795"},{"province":"江西","city":"丰城","zipCode":"331100","areaCode":"0795"},{"province":"江西","city":"樟树","zipCode":"331200","areaCode":"0795"},{"province":"江西","city":"万载","zipCode":"336100","areaCode":"0795"},{"province":"江西","city":"铜鼓","zipCode":"336200","areaCode":"0795"},{"province":"江西","city":"吉安","zipCode":"343000","areaCode":"0796"},{"province":"江西","city":"吉安县","zipCode":"343100","areaCode":"0796"},{"province":"江西","city":"新干","zipCode":"331300","areaCode":"0796"},{"province":"江西","city":"永丰","zipCode":"331500","areaCode":"0796"},{"province":"江西","city":"吉水","zipCode":"331600","areaCode":"0796"},{"province":"江西","city":"峡江","zipCode":"331400","areaCode":"0796"},{"province":"江西","city":"泰和","zipCode":"343700","areaCode":"0796"},{"province":"江西","city":"万安","zipCode":"343800","areaCode":"0796"},{"province":"江西","city":"遂川","zipCode":"343900","areaCode":"0796"},{"province":"江西","city":"宁冈","zipCode":"343500","areaCode":"0796"},{"province":"江西","city":"永新","zipCode":"343400","areaCode":"0796"},{"province":"江西","city":"井岗山","zipCode":"343600","areaCode":"0796"},{"province":"江西","city":"安福","zipCode":"343200","areaCode":"0796"},{"province":"江西","city":"赣州","zipCode":"341000","areaCode":"0797"},{"province":"江西","city":"瑞金","zipCode":"342500","areaCode":"0797"},{"province":"江西","city":"于都","zipCode":"342300","areaCode":"0797"},{"province":"江西","city":"兴国","zipCode":"342400","areaCode":"0797"},{"province":"江西","city":"宁都","zipCode":"342800","areaCode":"0797"},{"province":"江西","city":"石城","zipCode":"342700","areaCode":"0797"},{"province":"江西","city":"寻乌","zipCode":"342200","areaCode":"0797"},{"province":"江西","city":"南康","zipCode":"341400","areaCode":"0797"},{"province":"江西","city":"赣县","zipCode":"341100","areaCode":"0797"},{"province":"江西","city":"大余","zipCode":"341500","areaCode":"0797"},{"province":"江西","city":"上犹","zipCode":"341200","areaCode":"0797"},{"province":"江西","city":"崇义","zipCode":"341300","areaCode":"0797"},{"province":"江西","city":"信丰","zipCode":"341600","areaCode":"0797"},{"province":"江西","city":"龙南","zipCode":"341700","areaCode":"0797"},{"province":"江西","city":"定南","zipCode":"341900","areaCode":"0797"},{"province":"江西","city":"全南","zipCode":"341800","areaCode":"0797"},{"province":"江西","city":"安远","zipCode":"342100","areaCode":"0797"},{"province":"江西","city":"会昌","zipCode":"342600","areaCode":"0797"},{"province":"江西","city":"景德镇","zipCode":"333000","areaCode":"0798"},{"province":"江西","city":"乐平","zipCode":"333300","areaCode":"0798"},{"province":"江西","city":"浮梁","zipCode":"333400","areaCode":"0798"},{"province":"江西","city":"萍乡","zipCode":"337000","areaCode":"0799"},{"province":"江西","city":"莲花","zipCode":"337100","areaCode":"0799"},{"province":"江西","city":"鹰潭","zipCode":"335000","areaCode":"0701"},{"province":"江西","city":"贵溪","zipCode":"335400","areaCode":"0701"},{"province":"江西","city":"余江","zipCode":"335200","areaCode":"0701"},{"province":"四川","city":"成都","zipCode":"610000","areaCode":"028"},{"province":"四川","city":"温江","zipCode":"611100","areaCode":"028"},{"province":"四川","city":"金堂","zipCode":"610400","areaCode":"028"},{"province":"四川","city":"双流","zipCode":"610200","areaCode":"028"},{"province":"四川","city":"新津","zipCode":"611400","areaCode":"028"},{"province":"四川","city":"蒲江","zipCode":"611600","areaCode":"028"},{"province":"四川","city":"郫县","zipCode":"611700","areaCode":"028"},{"province":"四川","city":"新都","zipCode":"610500","areaCode":"028"},{"province":"四川","city":"彭州","zipCode":"611900","areaCode":"028"},{"province":"四川","city":"都江堰","zipCode":"611800","areaCode":"028"},{"province":"四川","city":"崇州","zipCode":"611200","areaCode":"028"},{"province":"四川","city":"大邑","zipCode":"611300","areaCode":"028"},{"province":"四川","city":"邛崃","zipCode":"611500","areaCode":"028"},{"province":"四川","city":"攀枝花","zipCode":"617000","areaCode":"0812"},{"province":"四川","city":"自贡","zipCode":"643000","areaCode":"0813"},{"province":"四川","city":"富顺","zipCode":"643200","areaCode":"0813"},{"province":"四川","city":"荣县","zipCode":"643100","areaCode":"0813"},{"province":"四川","city":"绵阳","zipCode":"621000","areaCode":"0816"},{"province":"四川","city":"平武","zipCode":"622500","areaCode":"0816"},{"province":"四川","city":"安县","zipCode":"622600","areaCode":"0816"},{"province":"四川","city":"江油","zipCode":"621700","areaCode":"0816"},{"province":"四川","city":"梓潼","zipCode":"622100","areaCode":"0816"},{"province":"四川","city":"三台","zipCode":"621100","areaCode":"0816"},{"province":"四川","city":"盐亭","zipCode":"621600","areaCode":"0816"},{"province":"四川","city":"南充","zipCode":"637100","areaCode":"0817"},{"province":"四川","city":"西充","zipCode":"637200","areaCode":"0817"},{"province":"四川","city":"南部","zipCode":"637300","areaCode":"0817"},{"province":"四川","city":"阆中","zipCode":"637400","areaCode":"0817"},{"province":"四川","city":"营山","zipCode":"638150","areaCode":"0817"},{"province":"四川","city":"蓬安","zipCode":"638200","areaCode":"0817"},{"province":"四川","city":"仪陇","zipCode":"637600","areaCode":"0817"},{"province":"四川","city":"达川","zipCode":"636400","areaCode":"0818"},{"province":"四川","city":"宣汉","zipCode":"636100","areaCode":"0818"},{"province":"四川","city":"开江","zipCode":"636200","areaCode":"0818"},{"province":"四川","city":"万源","zipCode":"636300","areaCode":"0818"},{"province":"四川","city":"大竹","zipCode":"635100","areaCode":"0818"},{"province":"四川","city":"渠县","zipCode":"635200","areaCode":"0818"},{"province":"四川","city":"遂宁","zipCode":"629000","areaCode":"0825"},{"province":"四川","city":"蓬溪","zipCode":"629100","areaCode":"0825"},{"province":"四川","city":"射洪","zipCode":"629200","areaCode":"0825"},{"province":"四川","city":"广安","zipCode":"638500","areaCode":"0825"},{"province":"四川","city":"岳池","zipCode":"638300","areaCode":"0825"},{"province":"四川","city":"武胜","zipCode":"638400","areaCode":"0825"},{"province":"四川","city":"华蓥","zipCode":"638600","areaCode":"0825"},{"province":"四川","city":"邻水","zipCode":"635300","areaCode":"0830"},{"province":"四川","city":"泸州","zipCode":"646000","areaCode":"0830"},{"province":"四川","city":"合江","zipCode":"646200","areaCode":"0830"},{"province":"四川","city":"纳溪","zipCode":"646300","areaCode":"0830"},{"province":"四川","city":"叙永","zipCode":"646400","areaCode":"0830"},{"province":"四川","city":"古蔺","zipCode":"646500","areaCode":"0830"},{"province":"四川","city":"宜宾","zipCode":"644000","areaCode":"0831"},{"province":"四川","city":"南溪","zipCode":"644100","areaCode":"0831"},{"province":"四川","city":"屏山","zipCode":"645300","areaCode":"0831"},{"province":"四川","city":"兴文","zipCode":"644400","areaCode":"0831"},{"province":"四川","city":"长宁","zipCode":"644300","areaCode":"0831"},{"province":"四川","city":"珙县","zipCode":"644500","areaCode":"0831"},{"province":"四川","city":"高县","zipCode":"645100","areaCode":"0831"},{"province":"四川","city":"筠连","zipCode":"645200","areaCode":"0831"},{"province":"四川","city":"江安","zipCode":"644200","areaCode":"0831"},{"province":"四川","city":"内江","zipCode":"641000","areaCode":"0832"},{"province":"四川","city":"资中","zipCode":"641200","areaCode":"0832"},{"province":"四川","city":"资阳","zipCode":"641300","areaCode":"0832"},{"province":"四川","city":"简阳","zipCode":"641400","areaCode":"0832"},{"province":"四川","city":"威远","zipCode":"642400","areaCode":"0832"},{"province":"四川","city":"隆昌","zipCode":"642100","areaCode":"0832"},{"province":"四川","city":"乐至","zipCode":"641500","areaCode":"0832"},{"province":"四川","city":"乐山","zipCode":"614000","areaCode":"0833"},{"province":"四川","city":"峨边","zipCode":"614300","areaCode":"0833"},{"province":"四川","city":"眉山","zipCode":"612100","areaCode":"0833"},{"province":"四川","city":"峨眉山","zipCode":"614200","areaCode":"0833"},{"province":"四川","city":"仁寿","zipCode":"612500","areaCode":"0833"},{"province":"四川","city":"井研","zipCode":"612600","areaCode":"0833"},{"province":"四川","city":"洪雅","zipCode":"612300","areaCode":"0833"},{"province":"四川","city":"沐川","zipCode":"614500","areaCode":"0833"},{"province":"四川","city":"彭山","zipCode":"612700","areaCode":"0833"},{"province":"四川","city":"青神","zipCode":"612400","areaCode":"0833"},{"province":"四川","city":"丹梭","zipCode":"612200","areaCode":"0833"},{"province":"四川","city":"马边","zipCode":"614600","areaCode":"0833"},{"province":"四川","city":"犍为","zipCode":"614400","areaCode":"0833"},{"province":"四川","city":"夹江","zipCode":"614100","areaCode":"0833"},{"province":"四川","city":"金口河","zipCode":"614700","areaCode":"0833"},{"province":"四川","city":"西昌","zipCode":"615000","areaCode":"0834"},{"province":"四川","city":"雅安","zipCode":"625000","areaCode":"0835"},{"province":"四川","city":"康定","zipCode":"626000","areaCode":"0836"},{"province":"四川","city":"马尔康","zipCode":"624000","areaCode":"0837"},{"province":"四川","city":"德阳","zipCode":"618200","areaCode":"0838"},{"province":"四川","city":"广汉","zipCode":"618300","areaCode":"0838"},{"province":"四川","city":"什邡","zipCode":"618400","areaCode":"0838"},{"province":"四川","city":"绵竹","zipCode":"618200","areaCode":"0838"},{"province":"四川","city":"中江","zipCode":"618100","areaCode":"0838"},{"province":"四川","city":"广元","zipCode":"628000","areaCode":"0839"},{"province":"四川","city":"剑阁","zipCode":"628300","areaCode":"0839"},{"province":"四川","city":"旺苍","zipCode":"628200","areaCode":"0839"},{"province":"四川","city":"青川","zipCode":"628100","areaCode":"0839"},{"province":"四川","city":"苍溪","zipCode":"628400","areaCode":"0839"},{"province":"四川","city":"荣县","zipCode":"643100","areaCode":"08209"},{"province":"四川","city":"璧山","zipCode":"632700","areaCode":"08225"},{"province":"四川","city":"米易","zipCode":"617200","areaCode":"08228"},{"province":"四川","city":"盐边","zipCode":"617100","areaCode":"08229"},{"province":"四川","city":"宁南","zipCode":"615400","areaCode":"08241"},{"province":"四川","city":"盐源","zipCode":"615700","areaCode":"08247"},{"province":"四川","city":"平昌","zipCode":"635400","areaCode":"08270"},{"province":"四川","city":"通江","zipCode":"635700","areaCode":"08277"},{"province":"四川","city":"南江","zipCode":"635600","areaCode":"08278"},{"province":"四川","city":"巴中","zipCode":"635500","areaCode":"08279"},{"province":"四川","city":"酉阳","zipCode":"648800","areaCode":"08295"},{"province":"四川","city":"秀山","zipCode":"648900","areaCode":"08296"},{"province":"四川","city":"彭水","zipCode":"648600","areaCode":"08298"},{"province":"四川","city":"富顺","zipCode":"643200","areaCode":"08402"},{"province":"四川","city":"理县","zipCode":"623100","areaCode":"08407"},{"province":"四川","city":"昭觉","zipCode":"616100","areaCode":"08411"},{"province":"四川","city":"甘洛","zipCode":"616800","areaCode":"08417"},{"province":"四川","city":"宝兴","zipCode":"625700","areaCode":"08430"},{"province":"四川","city":"石棉","zipCode":"625400","areaCode":"07437"},{"province":"四川","city":"木里","zipCode":"615800","areaCode":"08440"},{"province":"四川","city":"会理","zipCode":"615100","areaCode":"08444"},{"province":"四川","city":"会东","zipCode":"615200","areaCode":"08445"},{"province":"四川","city":"冕宁","zipCode":"615600","areaCode":"08447"},{"province":"四川","city":"越西","zipCode":"616600","areaCode":"08452"},{"province":"四川","city":"雷波","zipCode":"616500","areaCode":"08453"},{"province":"四川","city":"喜德","zipCode":"616700","areaCode":"08455"},{"province":"四川","city":"普格","zipCode":"615300","areaCode":"08456"},{"province":"四川","city":"布拖","zipCode":"616300","areaCode":"08457"},{"province":"四川","city":"金阳","zipCode":"616200","areaCode":"08458"},{"province":"四川","city":"美姑","zipCode":"616400","areaCode":"08459"},{"province":"四川","city":"名山","zipCode":"625100","areaCode":"08461"},{"province":"四川","city":"荥经","zipCode":"625200","areaCode":"08462"},{"province":"四川","city":"汉源","zipCode":"625300","areaCode":"08463"},{"province":"四川","city":"天全","zipCode":"625500","areaCode":"08465"},{"province":"四川","city":"芦山","zipCode":"625600","areaCode":"08466"},{"province":"四川","city":"汶川","zipCode":"623000","areaCode":"08489"},{"province":"四川","city":"松潘","zipCode":"623300","areaCode":"08493"},{"province":"海南","city":"海口","zipCode":"570000","areaCode":"0898"},{"province":"海南","city":"澄迈","zipCode":"571900","areaCode":"0898"},{"province":"海南","city":"安定","zipCode":"571200","areaCode":"0898"},{"province":"海南","city":"文昌","zipCode":"571300","areaCode":"0898"},{"province":"海南","city":"屯昌","zipCode":"571600","areaCode":"0898"},{"province":"海南","city":"琼海","zipCode":"571400","areaCode":"0898"},{"province":"海南","city":"万宁","zipCode":"571500","areaCode":"0898"},{"province":"海南","city":"琼山","zipCode":"571100","areaCode":"0898"},{"province":"海南","city":"三亚","zipCode":"572000","areaCode":"0899"},{"province":"海南","city":"通什","zipCode":"572200","areaCode":"0899"},{"province":"海南","city":"乐东","zipCode":"572500","areaCode":"0899"},{"province":"海南","city":"保亭","zipCode":"572300","areaCode":"0899"},{"province":"海南","city":"陵水","zipCode":"572400","areaCode":"0899"},{"province":"海南","city":"琼中","zipCode":"572900","areaCode":"0899"},{"province":"海南","city":"儋州","zipCode":"571700","areaCode":"0890"},{"province":"海南","city":"白沙","zipCode":"572800","areaCode":"0890"},{"province":"海南","city":"洋浦","zipCode":"578000","areaCode":"0890"},{"province":"海南","city":"东方","zipCode":"572600","areaCode":"0890"},{"province":"海南","city":"昌江","zipCode":"572700","areaCode":"0890"},{"province":"海南","city":"临高","zipCode":"571800","areaCode":"0890"},{"province":"贵州","city":"贵阳","zipCode":"550000","areaCode":"0851"},{"province":"贵州","city":"清镇","zipCode":"551400","areaCode":"0851"},{"province":"贵州","city":"修文","zipCode":"550200","areaCode":"0851"},{"province":"贵州","city":"息烽","zipCode":"551100","areaCode":"0851"},{"province":"贵州","city":"开阳","zipCode":"550300","areaCode":"0851"},{"province":"贵州","city":"遵义","zipCode":"563000","areaCode":"0852"},{"province":"贵州","city":"赤水","zipCode":"564700","areaCode":"0852"},{"province":"贵州","city":"习水","zipCode":"564600","areaCode":"0852"},{"province":"贵州","city":"仁怀","zipCode":"564500","areaCode":"0852"},{"province":"贵州","city":"遵义县","zipCode":"563100","areaCode":"0852"},{"province":"贵州","city":"桐梓","zipCode":"563200","areaCode":"0852"},{"province":"贵州","city":"绥阳","zipCode":"533300","areaCode":"0852"},{"province":"贵州","city":"正安","zipCode":"563400","areaCode":"0852"},{"province":"贵州","city":"道真","zipCode":"563500","areaCode":"0852"},{"province":"贵州","city":"湄潭","zipCode":"564100","areaCode":"0852"},{"province":"贵州","city":"凤冈","zipCode":"564200","areaCode":"0852"},{"province":"贵州","city":"务川","zipCode":"564300","areaCode":"0852"},{"province":"贵州","city":"余庆","zipCode":"564400","areaCode":"0852"},{"province":"贵州","city":"安顺","zipCode":"561000","areaCode":"0853"},{"province":"贵州","city":"都匀","zipCode":"558000","areaCode":"0854"},{"province":"贵州","city":"凯里","zipCode":"556000","areaCode":"0855"},{"province":"贵州","city":"铜仁","zipCode":"564300","areaCode":"0856"},{"province":"贵州","city":"毕节","zipCode":"551700","areaCode":"0857"},{"province":"贵州","city":"六盘水","zipCode":"553000","areaCode":"0858"},{"province":"贵州","city":"兴义","zipCode":"562400","areaCode":"0859"},{"province":"贵州","city":"册亨","zipCode":"552200","areaCode":"0859"},{"province":"贵州","city":"望谟","zipCode":"552300","areaCode":"0859"},{"province":"贵州","city":"安龙","zipCode":"552400","areaCode":"0859"},{"province":"贵州","city":"兴仁","zipCode":"562300","areaCode":"0859"},{"province":"贵州","city":"贞丰","zipCode":"562200","areaCode":"0859"},{"province":"贵州","city":"普安","zipCode":"561500","areaCode":"0859"},{"province":"贵州","city":"晴隆","zipCode":"561400","areaCode":"0859"},{"province":"贵州","city":"平坝","zipCode":"561100","areaCode":"08631"},{"province":"贵州","city":"紫云","zipCode":"550800","areaCode":"08632"},{"province":"贵州","city":"关岭","zipCode":"561300","areaCode":"08633"},{"province":"贵州","city":"镇宁","zipCode":"561200","areaCode":"08634"},{"province":"贵州","city":"普定","zipCode":"562100","areaCode":"08635"},{"province":"贵州","city":"贵定","zipCode":"551300","areaCode":"08640"},{"province":"贵州","city":"福泉","zipCode":"550500","areaCode":"08641"},{"province":"贵州","city":"瓮安","zipCode":"550400","areaCode":"08642"},{"province":"贵州","city":"三都","zipCode":"558100","areaCode":"08643"},{"province":"贵州","city":"荔波","zipCode":"558400","areaCode":"08644"},{"province":"贵州","city":"独山","zipCode":"558200","areaCode":"08645"},{"province":"贵州","city":"平塘","zipCode":"558300","areaCode":"08646"},{"province":"贵州","city":"罗甸","zipCode":"550100","areaCode":"08647"},{"province":"贵州","city":"惠水","zipCode":"550600","areaCode":"08648"},{"province":"贵州","city":"龙里","zipCode":"551200","areaCode":"08649"},{"province":"贵州","city":"榕江","zipCode":"557200","areaCode":"08650"},{"province":"贵州","city":"黄平","zipCode":"556100","areaCode":"08651"},{"province":"贵州","city":"施秉","zipCode":"556200","areaCode":"08652"},{"province":"贵州","city":"镇远","zipCode":"557700","areaCode":"08653"},{"province":"贵州","city":"岑巩","zipCode":"557800","areaCode":"08654"},{"province":"贵州","city":"三穗","zipCode":"556500","areaCode":"08655"},{"province":"贵州","city":"天柱","zipCode":"556600","areaCode":"08656"},{"province":"贵州","city":"锦屏","zipCode":"556700","areaCode":"08657"},{"province":"贵州","city":"黎平","zipCode":"557300","areaCode":"08658"},{"province":"贵州","city":"从江","zipCode":"557400","areaCode":"08659"},{"province":"贵州","city":"沿河","zipCode":"565300","areaCode":"08661"},{"province":"贵州","city":"松桃","zipCode":"554100","areaCode":"08662"},{"province":"贵州","city":"万山","zipCode":"554200","areaCode":"08663"},{"province":"贵州","city":"玉屏","zipCode":"554000","areaCode":"08664"},{"province":"贵州","city":"江口","zipCode":"554400","areaCode":"08665"},{"province":"贵州","city":"石阡","zipCode":"555100","areaCode":"08666"},{"province":"贵州","city":"思南","zipCode":"565100","areaCode":"08667"},{"province":"贵州","city":"印江","zipCode":"555200","areaCode":"08668"},{"province":"贵州","city":"德江","zipCode":"565200","areaCode":"08669"},{"province":"贵州","city":"长顺","zipCode":"550700","areaCode":"08670"},{"province":"贵州","city":"威宁","zipCode":"553100","areaCode":"08671"},{"province":"贵州","city":"赫章","zipCode":"553200","areaCode":"08672"},{"province":"贵州","city":"纳雍","zipCode":"553300","areaCode":"08673"},{"province":"贵州","city":"黔西","zipCode":"551500","areaCode":"08674"},{"province":"贵州","city":"大方","zipCode":"551600","areaCode":"08675"},{"province":"贵州","city":"金沙","zipCode":"551800","areaCode":"08676"},{"province":"贵州","city":"织金","zipCode":"552100","areaCode":"08677"},{"province":"贵州","city":"剑河","zipCode":"556400","areaCode":"08680"},{"province":"贵州","city":"六枝","zipCode":"553400","areaCode":"08681"},{"province":"贵州","city":"盘县","zipCode":"561600","areaCode":"08682"},{"province":"贵州","city":"雷山","zipCode":"557100","areaCode":"08686"},{"province":"贵州","city":"丹寨","zipCode":"557500","areaCode":"08687"},{"province":"贵州","city":"麻江","zipCode":"557600","areaCode":"08688"},{"province":"贵州","city":"台江","zipCode":"556300","areaCode":"08689"},{"province":"云南","city":"昭通","zipCode":"657000","areaCode":"0870"},{"province":"云南","city":"镇雄","zipCode":"657200","areaCode":"0870"},{"province":"云南","city":"永善","zipCode":"657300","areaCode":"0870"},{"province":"云南","city":"彝良","zipCode":"657600","areaCode":"0870"},{"province":"云南","city":"大关","zipCode":"657400","areaCode":"0870"},{"province":"云南","city":"威信","zipCode":"657900","areaCode":"0870"},{"province":"云南","city":"盐津","zipCode":"657500","areaCode":"0870"},{"province":"云南","city":"巧家","zipCode":"654600","areaCode":"0870"},{"province":"云南","city":"绥江","zipCode":"657700","areaCode":"0870"},{"province":"云南","city":"鲁甸","zipCode":"657100","areaCode":"0870"},{"province":"云南","city":"水富","zipCode":"657800","areaCode":"0870"},{"province":"云南","city":"昆明","zipCode":"650000","areaCode":"0871"},{"province":"云南","city":"富民","zipCode":"650400","areaCode":"0871"},{"province":"云南","city":"嵩明","zipCode":"651700","areaCode":"0871"},{"province":"云南","city":"宜良","zipCode":"652100","areaCode":"0871"},{"province":"云南","city":"呈贡","zipCode":"650500","areaCode":"0871"},{"province":"云南","city":"晋宁","zipCode":"650600","areaCode":"0871"},{"province":"云南","city":"安宁","zipCode":"650300","areaCode":"0871"},{"province":"云南","city":"路南","zipCode":"652200","areaCode":"0871"},{"province":"云南","city":"禄劝","zipCode":"651500","areaCode":"0871"},{"province":"云南","city":"大理","zipCode":"671000","areaCode":"0872"},{"province":"云南","city":"鹤庆","zipCode":"671500","areaCode":"0872"},{"province":"云南","city":"剑川","zipCode":"671300","areaCode":"0872"},{"province":"云南","city":"祥云","zipCode":"672100","areaCode":"0872"},{"province":"云南","city":"南涧","zipCode":"675700","areaCode":"0872"},{"province":"云南","city":"宾川","zipCode":"671600","areaCode":"0872"},{"province":"云南","city":"云龙","zipCode":"672700","areaCode":"0872"},{"province":"云南","city":"弥渡","zipCode":"675600","areaCode":"0872"},{"province":"云南","city":"洱源","zipCode":"671200","areaCode":"0872"},{"province":"云南","city":"永平","zipCode":"672600","areaCode":"0872"},{"province":"云南","city":"巍山","zipCode":"672400","areaCode":"0872"},{"province":"云南","city":"漾濞","zipCode":"672500","areaCode":"0872"},{"province":"云南","city":"个旧","zipCode":"661400","areaCode":"0873"},{"province":"云南","city":"石屏","zipCode":"662200","areaCode":"0873"},{"province":"云南","city":"弥勒","zipCode":"652300","areaCode":"0873"},{"province":"云南","city":"红河","zipCode":"654400","areaCode":"0873"},{"province":"云南","city":"开远","zipCode":"661000","areaCode":"0873"},{"province":"云南","city":"蒙自","zipCode":"661100","areaCode":"0873"},{"province":"云南","city":"建水","zipCode":"654300","areaCode":"0873"},{"province":"云南","city":"河口","zipCode":"661300","areaCode":"0873"},{"province":"云南","city":"泸西","zipCode":"652400","areaCode":"0873"},{"province":"云南","city":"金平","zipCode":"661500","areaCode":"0873"},{"province":"云南","city":"绿春","zipCode":"662500","areaCode":"0873"},{"province":"云南","city":"元阳","zipCode":"662400","areaCode":"0873"},{"province":"云南","city":"屏边","zipCode":"661200","areaCode":"0873"},{"province":"云南","city":"曲靖","zipCode":"655000","areaCode":"0874"},{"province":"云南","city":"寻甸","zipCode":"655200","areaCode":"0874"},{"province":"云南","city":"马龙","zipCode":"655100","areaCode":"0874"},{"province":"云南","city":"会泽","zipCode":"654200","areaCode":"0874"},{"province":"云南","city":"师宗","zipCode":"655700","areaCode":"0874"},{"province":"云南","city":"陆良","zipCode":"655600","areaCode":"0874"},{"province":"云南","city":"富源","zipCode":"655500","areaCode":"0874"},{"province":"云南","city":"宣威","zipCode":"665400","areaCode":"0874"},{"province":"云南","city":"罗平","zipCode":"665800","areaCode":"0874"},{"province":"云南","city":"保山","zipCode":"678000","areaCode":"0875"},{"province":"云南","city":"腾冲","zipCode":"679100","areaCode":"0875"},{"province":"云南","city":"昌宁","zipCode":"678100","areaCode":"0875"},{"province":"云南","city":"龙陵","zipCode":"678300","areaCode":"0875"},{"province":"云南","city":"施甸","zipCode":"678200","areaCode":"0875"},{"province":"云南","city":"文山","zipCode":"663000","areaCode":"0876"},{"province":"云南","city":"砚山","zipCode":"663100","areaCode":"0876"},{"province":"云南","city":"丘北","zipCode":"663200","areaCode":"0876"},{"province":"云南","city":"广南","zipCode":"663300","areaCode":"0876"},{"province":"云南","city":"马关","zipCode":"663700","areaCode":"0876"},{"province":"云南","city":"富宁","zipCode":"663400","areaCode":"0876"},{"province":"云南","city":"西畴","zipCode":"663500","areaCode":"0876"},{"province":"云南","city":"麻栗坡","zipCode":"663600","areaCode":"0876"},{"province":"云南","city":"玉溪","zipCode":"653100","areaCode":"0877"},{"province":"云南","city":"华宁","zipCode":"652800","areaCode":"0877"},{"province":"云南","city":"江川","zipCode":"652600","areaCode":"0877"},{"province":"云南","city":"新平","zipCode":"653400","areaCode":"0877"},{"province":"云南","city":"元江","zipCode":"653300","areaCode":"0877"},{"province":"云南","city":"通海","zipCode":"652700","areaCode":"0877"},{"province":"云南","city":"易门","zipCode":"651100","areaCode":"0877"},{"province":"云南","city":"澄江","zipCode":"652500","areaCode":"0877"},{"province":"云南","city":"峨山","zipCode":"653200","areaCode":"0877"},{"province":"云南","city":"楚雄","zipCode":"675000","areaCode":"0878"},{"province":"云南","city":"禄丰","zipCode":"651200","areaCode":"0878"},{"province":"云南","city":"牟定","zipCode":"675500","areaCode":"0878"},{"province":"云南","city":"大姚","zipCode":"675400","areaCode":"0878"},{"province":"云南","city":"永仁","zipCode":"651400","areaCode":"0878"},{"province":"云南","city":"南华","zipCode":"675200","areaCode":"0878"},{"province":"云南","city":"姚安","zipCode":"675300","areaCode":"0878"},{"province":"云南","city":"元谋","zipCode":"651300","areaCode":"0878"},{"province":"云南","city":"双柏","zipCode":"675100","areaCode":"0878"},{"province":"云南","city":"武定","zipCode":"651600","areaCode":"0878"},{"province":"云南","city":"思茅","zipCode":"665000","areaCode":"0879"},{"province":"云南","city":"普洱","zipCode":"665100","areaCode":"0879"},{"province":"云南","city":"墨江","zipCode":"654800","areaCode":"0879"},{"province":"云南","city":"景谷","zipCode":"666400","areaCode":"0879"},{"province":"云南","city":"景东","zipCode":"676200","areaCode":"0879"},{"province":"云南","city":"澜沧","zipCode":"665600","areaCode":"0879"},{"province":"云南","city":"西盟","zipCode":"665700","areaCode":"0879"},{"province":"云南","city":"江城","zipCode":"665900","areaCode":"0879"},{"province":"云南","city":"镇沅","zipCode":"666500","areaCode":"0879"},{"province":"云南","city":"孟连","zipCode":"665800","areaCode":"0879"},{"province":"云南","city":"东川","zipCode":"654100","areaCode":"0881"},{"province":"云南","city":"临沧","zipCode":"677000","areaCode":"0883"},{"province":"云南","city":"耿马","zipCode":"677500","areaCode":"0883"},{"province":"云南","city":"镇康","zipCode":"677700","areaCode":"0883"},{"province":"云南","city":"沧源","zipCode":"677400","areaCode":"0883"},{"province":"云南","city":"永德","zipCode":"677600","areaCode":"0883"},{"province":"云南","city":"凤庆","zipCode":"675900","areaCode":"0883"},{"province":"云南","city":"云县","zipCode":"675800","areaCode":"0883"},{"province":"云南","city":"双江","zipCode":"677300","areaCode":"0883"},{"province":"云南","city":"六库","zipCode":"673100","areaCode":"0886"},{"province":"云南","city":"泸水","zipCode":"673200","areaCode":"0886"},{"province":"云南","city":"福贡","zipCode":"673400","areaCode":"0886"},{"province":"云南","city":"贡山","zipCode":"673500","areaCode":"0886"},{"province":"云南","city":"兰坪","zipCode":"671400","areaCode":"0886"},{"province":"云南","city":"中甸","zipCode":"674400","areaCode":"0887"},{"province":"云南","city":"维西","zipCode":"674600","areaCode":"0887"},{"province":"云南","city":"德钦","zipCode":"674500","areaCode":"0887"},{"province":"云南","city":"丽江","zipCode":"674100","areaCode":"0888"},{"province":"云南","city":"宁蒗","zipCode":"674300","areaCode":"0888"},{"province":"云南","city":"华坪","zipCode":"617300","areaCode":"0888"},{"province":"云南","city":"永胜","zipCode":"674200","areaCode":"0888"},{"province":"云南","city":"景洪","zipCode":"666100","areaCode":"0691"},{"province":"云南","city":"孟海","zipCode":"666200","areaCode":"0691"},{"province":"云南","city":"孟腊","zipCode":"666300","areaCode":"0691"},{"province":"云南","city":"潞西","zipCode":"678400","areaCode":"0692"},{"province":"云南","city":"畹町","zipCode":"678500","areaCode":"0692"},{"province":"云南","city":"瑞丽","zipCode":"678600","areaCode":"0692"},{"province":"云南","city":"陇川","zipCode":"678700","areaCode":"0692"},{"province":"云南","city":"盈江","zipCode":"679300","areaCode":"0692"},{"province":"云南","city":"梁河","zipCode":"679200","areaCode":"0692"},{"province":"西藏","city":"拉萨","zipCode":"850000","areaCode":"0891"},{"province":"西藏","city":"日喀则","zipCode":"857000","areaCode":"0892"},{"province":"西藏","city":"林芝","zipCode":"850400","areaCode":"0894"},{"province":"西藏","city":"昌都","zipCode":"854000","areaCode":"0895"},{"province":"西藏","city":"堆龙德庆","zipCode":"851400","areaCode":"08015"},{"province":"西藏","city":"曲水","zipCode":"850600","areaCode":"08016"},{"province":"西藏","city":"尼木","zipCode":"851300","areaCode":"08017"},{"province":"西藏","city":"仁布","zipCode":"857200","areaCode":"08018"},{"province":"西藏","city":"扎囊","zipCode":"850800","areaCode":"08040"},{"province":"西藏","city":"贡嘎","zipCode":"850700","areaCode":"08049"},{"province":"西藏","city":"江达","zipCode":"854100","areaCode":"08051"},{"province":"西藏","city":"芒康","zipCode":"854500","areaCode":"08054"},{"province":"西藏","city":"八宿","zipCode":"854600","areaCode":"08056"},{"province":"西藏","city":"洛隆","zipCode":"855400","areaCode":"08057"},{"province":"西藏","city":"丁青","zipCode":"855700","areaCode":"08059"},{"province":"西藏","city":"巴青","zipCode":"852100","areaCode":"08061"},{"province":"西藏","city":"比如","zipCode":"852300","areaCode":"08062"},{"province":"西藏","city":"那曲","zipCode":"852000","areaCode":"0896"},{"province":"西藏","city":"班戈","zipCode":"852500","areaCode":"08067"},{"province":"西藏","city":"措勤","zipCode":"859300","areaCode":"08069"},{"province":"西藏","city":"阿里","zipCode":"859000","areaCode":"08073"},{"province":"西藏","city":"索县","zipCode":"852200","areaCode":"08078"},{"province":"西藏","city":"尼玛","zipCode":"852600","areaCode":"08081"},{"province":"西藏","city":"山南","zipCode":"852600","areaCode":"0893"},{"province":"陕西","city":"合阳","zipCode":"715300","areaCode":"0913"},{"province":"陕西","city":"蒲城","zipCode":"715500","areaCode":"0913"},{"province":"陕西","city":"韩城","zipCode":"715400","areaCode":"0913"},{"province":"陕西","city":"富平","zipCode":"711700","areaCode":"0913"},{"province":"陕西","city":"潼关","zipCode":"714300","areaCode":"0913"},{"province":"陕西","city":"华阴","zipCode":"714200","areaCode":"0913"},{"province":"陕西","city":"大荔","zipCode":"715100","areaCode":"0913"},{"province":"陕西","city":"华县","zipCode":"714100","areaCode":"0913"},{"province":"陕西","city":"渭南","zipCode":"714000","areaCode":"0913"},{"province":"陕西","city":"榆林","zipCode":"719000","areaCode":"0912"},{"province":"陕西","city":"富县","zipCode":"727500","areaCode":"0911"},{"province":"陕西","city":"安塞","zipCode":"717400","areaCode":"0911"},{"province":"陕西","city":"甘泉","zipCode":"716100","areaCode":"0911"},{"province":"陕西","city":"志丹","zipCode":"717500","areaCode":"0911"},{"province":"陕西","city":"洛川","zipCode":"727400","areaCode":"0911"},{"province":"陕西","city":"宜川","zipCode":"716200","areaCode":"0911"},{"province":"陕西","city":"黄龙","zipCode":"715700","areaCode":"0911"},{"province":"陕西","city":"吴旗","zipCode":"717600","areaCode":"0911"},{"province":"陕西","city":"延长","zipCode":"717100","areaCode":"0911"},{"province":"陕西","city":"子长","zipCode":"717300","areaCode":"0911"},{"province":"陕西","city":"延川","zipCode":"717200","areaCode":"0911"},{"province":"陕西","city":"黄陵","zipCode":"727300","areaCode":"0911"},{"province":"陕西","city":"延安","zipCode":"716000","areaCode":"0911"},{"province":"陕西","city":"彬县","zipCode":"713500","areaCode":"0910"},{"province":"陕西","city":"乾县","zipCode":"713300","areaCode":"0910"},{"province":"陕西","city":"武功","zipCode":"712200","areaCode":"0910"},{"province":"陕西","city":"礼泉","zipCode":"713200","areaCode":"0910"},{"province":"陕西","city":"泾阳","zipCode":"713700","areaCode":"0910"},{"province":"陕西","city":"三原","zipCode":"713800","areaCode":"0910"},{"province":"陕西","city":"淳化","zipCode":"711200","areaCode":"0910"},{"province":"陕西","city":"旬邑","zipCode":"711300","areaCode":"0910"},{"province":"陕西","city":"兴平","zipCode":"713100","areaCode":"0910"},{"province":"陕西","city":"永寿","zipCode":"713400","areaCode":"0910"},{"province":"陕西","city":"长武","zipCode":"713600","areaCode":"0910"},{"province":"陕西","city":"武功","zipCode":"712200","areaCode":"0910"},{"province":"陕西","city":"咸阳","zipCode":"712000","areaCode":"0910"},{"province":"陕西","city":"长安","zipCode":"710100","areaCode":"029"},{"province":"陕西","city":"临潼","zipCode":"710600","areaCode":"029"},{"province":"陕西","city":"蓝田","zipCode":"710500","areaCode":"029"},{"province":"陕西","city":"周至","zipCode":"710400","areaCode":"029"},{"province":"陕西","city":"户县","zipCode":"710300","areaCode":"029"},{"province":"陕西","city":"高陵","zipCode":"710200","areaCode":"029"},{"province":"陕西","city":"西安","zipCode":"710000","areaCode":"029"},{"province":"陕西","city":"商南","zipCode":"726300","areaCode":"0914"},{"province":"陕西","city":"略阳","zipCode":"724300","areaCode":"0916"},{"province":"陕西","city":"宁强","zipCode":"724400","areaCode":"0916"},{"province":"陕西","city":"佛坪","zipCode":"723400","areaCode":"0916"},{"province":"陕西","city":"留坝","zipCode":"724100","areaCode":"0916"},{"province":"陕西","city":"白河","zipCode":"725800","areaCode":"0915"},{"province":"陕西","city":"镇坪","zipCode":"725600","areaCode":"0915"},{"province":"陕西","city":"山阳","zipCode":"726400","areaCode":"09244"},{"province":"陕西","city":"镇安","zipCode":"711500","areaCode":"09243"},{"province":"陕西","city":"柞水","zipCode":"711400","areaCode":"09242"},{"province":"陕西","city":"清涧","zipCode":"718300","areaCode":"09240"},{"province":"陕西","city":"神木","zipCode":"719300","areaCode":"09229"},{"province":"陕西","city":"靖边","zipCode":"718500","areaCode":"09228"},{"province":"陕西","city":"定边","zipCode":"718600","areaCode":"09227"},{"province":"陕西","city":"绥德","zipCode":"718000","areaCode":"09226"},{"province":"陕西","city":"米脂","zipCode":"718100","areaCode":"09225"},{"province":"陕西","city":"横山","zipCode":"719100","areaCode":"09224"},{"province":"陕西","city":"府谷","zipCode":"719400","areaCode":"09223"},{"province":"陕西","city":"佳县","zipCode":"719200","areaCode":"09222"},{"province":"陕西","city":"子洲","zipCode":"718400","areaCode":"09221"},{"province":"陕西","city":"吴堡","zipCode":"718200","areaCode":"09220"},{"province":"陕西","city":"宜君","zipCode":"727200","areaCode":"0919"},{"province":"陕西","city":"耀县","zipCode":"727100","areaCode":"0919"},{"province":"陕西","city":"铜川","zipCode":"727000","areaCode":"0919"},{"province":"陕西","city":"麟游","zipCode":"721500","areaCode":"0917"},{"province":"陕西","city":"太白","zipCode":"721600","areaCode":"0917"},{"province":"陕西","city":"千阳","zipCode":"721100","areaCode":"0917"},{"province":"陕西","city":"陇县","zipCode":"721200","areaCode":"0917"},{"province":"陕西","city":"凤县","zipCode":"721700","areaCode":"0917"},{"province":"陕西","city":"眉县","zipCode":"722300","areaCode":"0917"},{"province":"陕西","city":"扶风","zipCode":"722200","areaCode":"0917"},{"province":"陕西","city":"岐山","zipCode":"722400","areaCode":"0917"},{"province":"陕西","city":"凤翔","zipCode":"721400","areaCode":"0917"},{"province":"陕西","city":"宝鸡县","zipCode":"721300","areaCode":"0917"},{"province":"陕西","city":"宝鸡","zipCode":"721000","areaCode":"0917"},{"province":"陕西","city":"勉县","zipCode":"724200","areaCode":"0916"},{"province":"陕西","city":"镇巴","zipCode":"713600","areaCode":"0916"},{"province":"陕西","city":"西乡","zipCode":"723500","areaCode":"0916"},{"province":"陕西","city":"洋县","zipCode":"723300","areaCode":"0916"},{"province":"陕西","city":"城固","zipCode":"723200","areaCode":"0916"},{"province":"陕西","city":"南郑","zipCode":"723100","areaCode":"0916"},{"province":"陕西","city":"汉中","zipCode":"723000","areaCode":"0916"},{"province":"陕西","city":"紫阳","zipCode":"725300","areaCode":"0915"},{"province":"陕西","city":"平利","zipCode":"725500","areaCode":"0915"},{"province":"陕西","city":"石泉","zipCode":"725200","areaCode":"0915"},{"province":"陕西","city":"旬阳","zipCode":"725700","areaCode":"0915"},{"province":"陕西","city":"汉阴","zipCode":"725100","areaCode":"0915"},{"province":"陕西","city":"宁陕","zipCode":"711600","areaCode":"0915"},{"province":"陕西","city":"岚皋","zipCode":"725400","areaCode":"0915"},{"province":"陕西","city":"安康","zipCode":"725000","areaCode":"0915"},{"province":"陕西","city":"洛南","zipCode":"726100","areaCode":"0914"},{"province":"陕西","city":"丹凤","zipCode":"726200","areaCode":"0914"},{"province":"陕西","city":"商州","zipCode":"726000","areaCode":"0914"},{"province":"陕西","city":"澄城","zipCode":"715200","areaCode":"0913"},{"province":"陕西","city":"白水","zipCode":"715600","areaCode":"0913"},{"province":"甘肃","city":"临夏市","zipCode":"731100","areaCode":"0930"},{"province":"甘肃","city":"兰州","zipCode":"730000","areaCode":"0931"},{"province":"甘肃","city":"红古区","zipCode":"730000","areaCode":"0931"},{"province":"甘肃","city":"皋兰","zipCode":"730200","areaCode":"0931"},{"province":"甘肃","city":"榆中","zipCode":"730100","areaCode":"0931"},{"province":"甘肃","city":"永登","zipCode":"730300","areaCode":"0931"},{"province":"甘肃","city":"定西","zipCode":"743000","areaCode":"0932"},{"province":"甘肃","city":"平凉","zipCode":"744000","areaCode":"0933"},{"province":"甘肃","city":"静宁","zipCode":"743400","areaCode":"0933"},{"province":"甘肃","city":"泾川","zipCode":"744300","areaCode":"0933"},{"province":"甘肃","city":"灵台","zipCode":"744400","areaCode":"0933"},{"province":"甘肃","city":"崇信","zipCode":"744200","areaCode":"0933"},{"province":"甘肃","city":"华亭","zipCode":"744100","areaCode":"0993"},{"province":"甘肃","city":"庄浪","zipCode":"741700","areaCode":"0993"},{"province":"甘肃","city":"西峰","zipCode":"745000","areaCode":"0934"},{"province":"甘肃","city":"金昌","zipCode":"733000","areaCode":"0935"},{"province":"甘肃","city":"民勤","zipCode":"733300","areaCode":"0935"},{"province":"甘肃","city":"天祝","zipCode":"733200","areaCode":"0935"},{"province":"甘肃","city":"古浪","zipCode":"733100","areaCode":"0935"},{"province":"甘肃","city":"金川","zipCode":"737100","areaCode":"0935"},{"province":"甘肃","city":"永昌","zipCode":"737200","areaCode":"0935"},{"province":"甘肃","city":"张掖","zipCode":"734000","areaCode":"0936"},{"province":"甘肃","city":"山丹","zipCode":"734100","areaCode":"0936"},{"province":"甘肃","city":"高台","zipCode":"734300","areaCode":"0936"},{"province":"甘肃","city":"民乐","zipCode":"734500","areaCode":"0936"},{"province":"甘肃","city":"临泽","zipCode":"734200","areaCode":"0936"},{"province":"甘肃","city":"萧南","zipCode":"734400","areaCode":"0936"},{"province":"甘肃","city":"酒泉","zipCode":"735000","areaCode":"0937"},{"province":"甘肃","city":"玉门","zipCode":"735200","areaCode":"0937"},{"province":"甘肃","city":"安西","zipCode":"736100","areaCode":"0937"},{"province":"甘肃","city":"敦煌","zipCode":"736200","areaCode":"0937"},{"province":"甘肃","city":"金塔","zipCode":"735300","areaCode":"0937"},{"province":"甘肃","city":"阿克塞","zipCode":"736400","areaCode":"0937"},{"province":"甘肃","city":"嘉峪关","zipCode":"735100","areaCode":"0937"},{"province":"甘肃","city":"肃北","zipCode":"736300","areaCode":"0937"},{"province":"甘肃","city":"天水","zipCode":"741000","areaCode":"0938"},{"province":"甘肃","city":"甘谷","zipCode":"741200","areaCode":"0938"},{"province":"甘肃","city":"武山","zipCode":"741300","areaCode":"0938"},{"province":"甘肃","city":"秦安","zipCode":"741600","areaCode":"0938"},{"province":"甘肃","city":"张家川","zipCode":"741500","areaCode":"0938"},{"province":"甘肃","city":"清水","zipCode":"741400","areaCode":"0938"},{"province":"甘肃","city":"武都","zipCode":"746000","areaCode":"0939"},{"province":"甘肃","city":"白银","zipCode":"730900","areaCode":"0943"},{"province":"甘肃","city":"靖远","zipCode":"730600","areaCode":"0943"},{"province":"甘肃","city":"平凉","zipCode":"744000","areaCode":"0943"},{"province":"甘肃","city":"景泰","zipCode":"730400","areaCode":"0943"},{"province":"甘肃","city":"会宁","zipCode":"743200","areaCode":"0943"},{"province":"甘肃","city":"临夏县","zipCode":"731800","areaCode":"09401"},{"province":"甘肃","city":"永靖","zipCode":"731600","areaCode":"09402"},{"province":"甘肃","city":"和政","zipCode":"731200","areaCode":"09403"},{"province":"甘肃","city":"东乡","zipCode":"731400","areaCode":"09404"},{"province":"甘肃","city":"康乐","zipCode":"731500","areaCode":"09405"},{"province":"甘肃","city":"广河","zipCode":"731300","areaCode":"09406"},{"province":"甘肃","city":"积石山","zipCode":"731700","areaCode":"09407"},{"province":"甘肃","city":"甘南州","zipCode":"747000","areaCode":"09411"},{"province":"甘肃","city":"夏河","zipCode":"747100","areaCode":"09412"},{"province":"甘肃","city":"临潭","zipCode":"747500","areaCode":"09413"},{"province":"甘肃","city":"舟曲","zipCode":"746300","areaCode":"09414"},{"province":"甘肃","city":"碌曲","zipCode":"747200","areaCode":"09415"},{"province":"甘肃","city":"玛曲","zipCode":"747300","areaCode":"09416"},{"province":"甘肃","city":"旧尼","zipCode":"747600","areaCode":"09417"},{"province":"甘肃","city":"迭部","zipCode":"747400","areaCode":"09418"},{"province":"甘肃","city":"陇西","zipCode":"748100","areaCode":"09421"},{"province":"甘肃","city":"漳县","zipCode":"748300","areaCode":"09422"},{"province":"甘肃","city":"通渭","zipCode":"743300","areaCode":"09423"},{"province":"甘肃","city":"岷县","zipCode":"748400","areaCode":"09424"},{"province":"甘肃","city":"临洮","zipCode":"730500","areaCode":"09425"},{"province":"甘肃","city":"渭源","zipCode":"748200","areaCode":"09426"},{"province":"甘肃","city":"庆阳","zipCode":"745100","areaCode":"09441"},{"province":"甘肃","city":"宁县","zipCode":"745200","areaCode":"09442"},{"province":"甘肃","city":"镇原","zipCode":"744500","areaCode":"09443"},{"province":"甘肃","city":"环县","zipCode":"745700","areaCode":"09444"},{"province":"甘肃","city":"合水","zipCode":"745400","areaCode":"09445"},{"province":"甘肃","city":"正宁","zipCode":"745300","areaCode":"09446"},{"province":"甘肃","city":"华池","zipCode":"745600","areaCode":"09447"},{"province":"甘肃","city":"成县","zipCode":"742500","areaCode":"09491"},{"province":"甘肃","city":"康县","zipCode":"746500","areaCode":"09492"},{"province":"甘肃","city":"文县","zipCode":"746400","areaCode":"09493"},{"province":"甘肃","city":"宕昌","zipCode":"748500","areaCode":"09494"},{"province":"甘肃","city":"西和","zipCode":"742100","areaCode":"09495"},{"province":"甘肃","city":"礼县","zipCode":"742200","areaCode":"09496"},{"province":"甘肃","city":"徽县","zipCode":"742300","areaCode":"09497"},{"province":"甘肃","city":"两当","zipCode":"742400","areaCode":"09498"},{"province":"青海","city":"海晏","zipCode":"812200","areaCode":"0970"},{"province":"青海","city":"西宁","zipCode":"810000","areaCode":"0971"},{"province":"青海","city":"大通","zipCode":"810100","areaCode":"0971"},{"province":"青海","city":"乐都","zipCode":"810700","areaCode":"0972"},{"province":"青海","city":"湟中","zipCode":"811600","areaCode":"0972"},{"province":"青海","city":"互助","zipCode":"810500","areaCode":"0972"},{"province":"青海","city":"湟源","zipCode":"812100","areaCode":"0972"},{"province":"青海","city":"民和","zipCode":"810800","areaCode":"0972"},{"province":"青海","city":"循化","zipCode":"811100","areaCode":"0972"},{"province":"青海","city":"化隆","zipCode":"810900","areaCode":"0972"},{"province":"青海","city":"同仁","zipCode":"811300","areaCode":"0973"},{"province":"青海","city":"共和","zipCode":"813000","areaCode":"0974"},{"province":"青海","city":"玛沁","zipCode":"814000","areaCode":"0975"},{"province":"青海","city":"玉树","zipCode":"815000","areaCode":"0976"},{"province":"青海","city":"德令哈","zipCode":"817000","areaCode":"0977"},{"province":"青海","city":"门源","zipCode":"810300","areaCode":"0978"},{"province":"青海","city":"格尔木","zipCode":"816000","areaCode":"0979"},{"province":"青海","city":"河南","zipCode":"811500","areaCode":"09820"},{"province":"青海","city":"尖扎","zipCode":"811200","areaCode":"09828"},{"province":"青海","city":"泽库","zipCode":"811400","areaCode":"09828"},{"province":"青海","city":"乌兰","zipCode":"817100","areaCode":"09831"},{"province":"青海","city":"都兰","zipCode":"816100","areaCode":"09832"},{"province":"青海","city":"天峻","zipCode":"817200","areaCode":"09833"},{"province":"青海","city":"治多","zipCode":"815400","areaCode":"09834"},{"province":"青海","city":"称多","zipCode":"815100","areaCode":"09835"},{"province":"青海","city":"囊谦","zipCode":"815200","areaCode":"09836"},{"province":"青海","city":"杂多","zipCode":"815300","areaCode":"09837"},{"province":"青海","city":"曲麻莱","zipCode":"815500","areaCode":"09838"},{"province":"青海","city":"龙羊峡","zipCode":"811800","areaCode":"09839"},{"province":"青海","city":"茫崖","zipCode":"817500","areaCode":"09840"},{"province":"青海","city":"贵德","zipCode":"811700","areaCode":"09841"},{"province":"青海","city":"贵南","zipCode":"813100","areaCode":"09842"},{"province":"青海","city":"兴海","zipCode":"813300","areaCode":"09843"},{"province":"青海","city":"同德","zipCode":"813200","areaCode":"09844"},{"province":"青海","city":"祁连","zipCode":"810400","areaCode":"09846"},{"province":"青海","city":"刚察","zipCode":"812300","areaCode":"09847"},{"province":"青海","city":"大柴旦","zipCode":"817300","areaCode":"09848"},{"province":"青海","city":"冷湖","zipCode":"817400","areaCode":"09849"},{"province":"青海","city":"达日","zipCode":"814200","areaCode":"09851"},{"province":"青海","city":"玛多","zipCode":"813500","areaCode":"09852"},{"province":"青海","city":"班玛","zipCode":"814300","areaCode":"09853"},{"province":"青海","city":"甘德","zipCode":"814100","areaCode":"09854"},{"province":"宁夏","city":"银川","zipCode":"750000","areaCode":"0951"},{"province":"宁夏","city":"贺兰","zipCode":"750200","areaCode":"0951"},{"province":"宁夏","city":"永宁","zipCode":"750100","areaCode":"0951"},{"province":"宁夏","city":"石嘴山","zipCode":"753000","areaCode":"0952"},{"province":"宁夏","city":"平罗","zipCode":"753400","areaCode":"0952"},{"province":"宁夏","city":"惠农","zipCode":"753600","areaCode":"0952"},{"province":"宁夏","city":"陶乐","zipCode":"753500","areaCode":"0952"},{"province":"宁夏","city":"吴忠","zipCode":"751100","areaCode":"0953"},{"province":"宁夏","city":"中宁","zipCode":"751200","areaCode":"0953"},{"province":"宁夏","city":"中卫","zipCode":"751700","areaCode":"0953"},{"province":"宁夏","city":"青铜峡","zipCode":"751600","areaCode":"0953"},{"province":"宁夏","city":"灵武","zipCode":"751400","areaCode":"0953"},{"province":"宁夏","city":"同心","zipCode":"751300","areaCode":"0953"},{"province":"宁夏","city":"盐池","zipCode":"751500","areaCode":"0953"},{"province":"宁夏","city":"固原","zipCode":"756000","areaCode":"0954"},{"province":"宁夏","city":"海原","zipCode":"756100","areaCode":"0954"},{"province":"宁夏","city":"西吉","zipCode":"756200","areaCode":"0954"},{"province":"宁夏","city":"隆德","zipCode":"756300","areaCode":"0954"},{"province":"宁夏","city":"泾源","zipCode":"756400","areaCode":"0954"},{"province":"宁夏","city":"彭阳","zipCode":"756500","areaCode":"0954"},{"province":"新疆","city":"塔城","zipCode":"834700","areaCode":"0901"},{"province":"新疆","city":"额敏","zipCode":"834600","areaCode":"0901"},{"province":"新疆","city":"裕民","zipCode":"834800","areaCode":"0901"},{"province":"新疆","city":"托里","zipCode":"834500","areaCode":"0901"},{"province":"新疆","city":"哈密","zipCode":"839000","areaCode":"0902"},{"province":"新疆","city":"马里坤","zipCode":"839200","areaCode":"0902"},{"province":"新疆","city":"伊吾","zipCode":"839300","areaCode":"0902"},{"province":"新疆","city":"和田","zipCode":"848000","areaCode":"0903"},{"province":"新疆","city":"皮山","zipCode":"845100","areaCode":"0903"},{"province":"新疆","city":"墨玉","zipCode":"848100","areaCode":"0903"},{"province":"新疆","city":"洛浦","zipCode":"848200","areaCode":"0903"},{"province":"新疆","city":"策勒","zipCode":"848300","areaCode":"0903"},{"province":"新疆","city":"于田","zipCode":"848400","areaCode":"0903"},{"province":"新疆","city":"民丰","zipCode":"848500","areaCode":"0903"},{"province":"新疆","city":"阿勒泰","zipCode":"836500","areaCode":"0906"},{"province":"新疆","city":"青河","zipCode":"836200","areaCode":"0906"},{"province":"新疆","city":"布尔律","zipCode":"836600","areaCode":"0906"},{"province":"新疆","city":"哈巴河","zipCode":"836700","areaCode":"0906"},{"province":"新疆","city":"富蕴","zipCode":"836100","areaCode":"0906"},{"province":"新疆","city":"福海","zipCode":"836400","areaCode":"0906"},{"province":"新疆","city":"吉木乃","zipCode":"836800","areaCode":"0906"},{"province":"新疆","city":"阿图什","zipCode":"845300","areaCode":"0908"},{"province":"新疆","city":"乌恰","zipCode":"845400","areaCode":"0908"},{"province":"新疆","city":"阿克陶","zipCode":"845500","areaCode":"0908"},{"province":"新疆","city":"博乐","zipCode":"833400","areaCode":"0909"},{"province":"新疆","city":"精河","zipCode":"833300","areaCode":"0909"},{"province":"新疆","city":"温泉","zipCode":"833500","areaCode":"0909"},{"province":"新疆","city":"克拉玛依","zipCode":"834000","areaCode":"0990"},{"province":"新疆","city":"布克赛尔","zipCode":"834000","areaCode":"0990"},{"province":"新疆","city":"乌鲁木齐","zipCode":"830000","areaCode":"0991"},{"province":"新疆","city":"奎屯","zipCode":"833200","areaCode":"0992"},{"province":"新疆","city":"乌苏","zipCode":"833000","areaCode":"0992"},{"province":"新疆","city":"石河子","zipCode":"832000","areaCode":"0993"},{"province":"新疆","city":"沙湾","zipCode":"832100","areaCode":"0993"},{"province":"新疆","city":"昌吉","zipCode":"831100","areaCode":"0994"},{"province":"新疆","city":"奇台","zipCode":"831800","areaCode":"0994"},{"province":"新疆","city":"米泉","zipCode":"831400","areaCode":"0994"},{"province":"新疆","city":"呼图壁","zipCode":"831200","areaCode":"0994"},{"province":"新疆","city":"玛纳斯","zipCode":"832200","areaCode":"0994"},{"province":"新疆","city":"吉木萨尔","zipCode":"831700","areaCode":"0994"},{"province":"新疆","city":"阜康","zipCode":"831500","areaCode":"0994"},{"province":"新疆","city":"木垒","zipCode":"831900","areaCode":"0994"},{"province":"新疆","city":"吐鲁番","zipCode":"838000","areaCode":"0995"},{"province":"新疆","city":"鄯善","zipCode":"838200","areaCode":"0995"},{"province":"新疆","city":"托克逊","zipCode":"838100","areaCode":"0995"},{"province":"新疆","city":"库尔勒","zipCode":"841000","areaCode":"0996"},{"province":"新疆","city":"焉耆","zipCode":"841100","areaCode":"0996"},{"province":"新疆","city":"博湖","zipCode":"841400","areaCode":"0996"},{"province":"新疆","city":"轮台","zipCode":"841600","areaCode":"0996"},{"province":"新疆","city":"和静","zipCode":"841300","areaCode":"0996"},{"province":"新疆","city":"和硕","zipCode":"841200","areaCode":"0996"},{"province":"新疆","city":"若羌","zipCode":"841800","areaCode":"0996"},{"province":"新疆","city":"尉犁","zipCode":"841500","areaCode":"0996"},{"province":"新疆","city":"且末","zipCode":"841900","areaCode":"0996"},{"province":"新疆","city":"阿克苏","zipCode":"843000","areaCode":"0997"},{"province":"新疆","city":"库车","zipCode":"842000","areaCode":"0997"},{"province":"新疆","city":"新和","zipCode":"842100","areaCode":"0997"},{"province":"新疆","city":"沙雅","zipCode":"842200","areaCode":"0997"},{"province":"新疆","city":"拜城","zipCode":"842300","areaCode":"0997"},{"province":"新疆","city":"温宿","zipCode":"843100","areaCode":"0997"},{"province":"新疆","city":"乌什","zipCode":"843400","areaCode":"0997"},{"province":"新疆","city":"阿拉尔","zipCode":"843300","areaCode":"0997"},{"province":"新疆","city":"阿瓦提","zipCode":"843200","areaCode":"0997"},{"province":"新疆","city":"柯坪","zipCode":"843600","areaCode":"0997"},{"province":"新疆","city":"阿合奇","zipCode":"843500","areaCode":"0997"},{"province":"新疆","city":"咯什","zipCode":"844000","areaCode":"0998"},{"province":"新疆","city":"疏附","zipCode":"844100","areaCode":"0998"},{"province":"新疆","city":"伽师","zipCode":"844300","areaCode":"0998"},{"province":"新疆","city":"巴楚","zipCode":"843800","areaCode":"0998"},{"province":"新疆","city":"麦盖提","zipCode":"844600","areaCode":"0998"},{"province":"新疆","city":"叶城","zipCode":"844900","areaCode":"0998"},{"province":"新疆","city":"泽普","zipCode":"844800","areaCode":"0998"},{"province":"新疆","city":"莎车","zipCode":"844700","areaCode":"0998"},{"province":"新疆","city":"岳普湖","zipCode":"844400","areaCode":"0998"},{"province":"新疆","city":"英吉沙","zipCode":"844500","areaCode":"0998"},{"province":"新疆","city":"塔什库尔干","zipCode":"845200","areaCode":"0999"},{"province":"新疆","city":"疏勒","zipCode":"844200","areaCode":"0999"},{"province":"新疆","city":"伊宁","zipCode":"835000","areaCode":"0999"},{"province":"新疆","city":"察布查尔","zipCode":"835300","areaCode":"0999"},{"province":"新疆","city":"霍城","zipCode":"835200","areaCode":"0999"},{"province":"新疆","city":"新源","zipCode":"835800","areaCode":"0999"},{"province":"新疆","city":"巩留","zipCode":"835400","areaCode":"0999"},{"province":"新疆","city":"尼勒克","zipCode":"835700","areaCode":"0999"},{"province":"新疆","city":"特克斯","zipCode":"835500","areaCode":"0999"},{"province":"新疆","city":"昭苏","zipCode":"835600","areaCode":"0999"}]